{
"type": "FeatureCollection",
"name": "Bumijo4326_V2",
"crs": { "type": "name", "properties": { "name": "urn:ogc:def:crs:OGC:1.3:CRS84" } },
"features": [
{ "type": "Feature", "properties": { "NAMOBJ": "Bumijo", "FCODE": "BA03070040", "REMARK": "Wilayah Administrasi Kelurahan/Desa", "METADATA": "TASWIL1000020221227_DATA_BATAS_DESAKELURAHAN", "SRS_ID": "4326", "KDCPUM": "34.71.02", "KDEPUM": "34.71.02.1001", "KDPKAB": "34.71", "KDPPUM": "34", "LUASWH": 0.0, "TIPADM": 2, "WADMKC": "Jetis", "WADMKD": "Kelurahan Bumijo", "WADMKK": "Kota Yogyakarta", "WADMPR": "Daerah Istimewa Yogyakarta", "UUPP": "Data RBI Skala 1:25.000", "luas": 0.63285105918999995, "SHAPE_Leng": 0.03078125595, "SHAPE_Area": 5.187892e-05, "Kampung": "Pingit" }, "geometry": { "type": "MultiPolygon", "coordinates": [ [ [ [ 110.358603292985634, -7.784986360899993, 0.0 ], [ 110.358209761000026, -7.784999746999934, 0.0 ], [ 110.357614508000012, -7.784831655999931, 0.0 ], [ 110.357537707000034, -7.784811830999954, 0.0 ], [ 110.357535781000038, -7.784831727999972, 0.0 ], [ 110.357533412000024, -7.785573683999922, 0.0 ], [ 110.357364351000044, -7.785572014999957, 0.0 ], [ 110.356976463000038, -7.785509452999931, 0.0 ], [ 110.356861055000039, -7.785494173999935, 0.0 ], [ 110.356817202000016, -7.78610223199995, 0.0 ], [ 110.356533621000011, -7.786066166999945, 0.0 ], [ 110.356364750000026, -7.786031302999938, 0.0 ], [ 110.356214833000038, -7.785994981999965, 0.0 ], [ 110.356124908000055, -7.785969905999893, 0.0 ], [ 110.356092437000044, -7.785953441999943, 0.0 ], [ 110.356012867000032, -7.785913096999934, 0.0 ], [ 110.35594185500004, -7.785870489999979, 0.0 ], [ 110.355752256000031, -7.785720125999941, 0.0 ], [ 110.355680775000025, -7.785630358999973, 0.0 ], [ 110.355714022000058, -7.785547240999959, 0.0 ], [ 110.355748932000012, -7.785485733999964, 0.0 ], [ 110.35579215300001, -7.785417576999943, 0.0 ], [ 110.355800465000044, -7.785376018999924, 0.0 ], [ 110.355644204000015, -7.785282926999971, 0.0 ], [ 110.355582696000027, -7.785248016999955, 0.0 ], [ 110.355369915000011, -7.785144951999942, 0.0 ], [ 110.355274052245562, -7.785089375388452, 0.0 ], [ 110.355389, -7.784922, 0.0 ], [ 110.355564, -7.784756, 0.0 ], [ 110.355575, -7.78474899999989, 0.0 ], [ 110.355703000000148, -7.784636000999903, 0.0 ], [ 110.356009, -7.784311, 0.0 ], [ 110.356319000000113, -7.784013000999941, 0.0 ], [ 110.356458000000103, -7.783881, 0.0 ], [ 110.356693, -7.783644, 0.0 ], [ 110.35686900000016, -7.783317, 0.0 ], [ 110.357068, -7.782684000999919, 0.0 ], [ 110.357120000000151, -7.782517, 0.0 ], [ 110.357164, -7.782189, 0.0 ], [ 110.357185, -7.782025, 0.0 ], [ 110.357483, -7.781799999999878, 0.0 ], [ 110.357559, -7.781744999999886, 0.0 ], [ 110.357606, -7.781558, 0.0 ], [ 110.357636, -7.78124699999989, 0.0 ], [ 110.357859, -7.781125000999912, 0.0 ], [ 110.357954, -7.780986000999981, 0.0 ], [ 110.358037000000166, -7.780863999999892, 0.0 ], [ 110.358134, -7.780725, 0.0 ], [ 110.358226, -7.780663999999883, 0.0 ], [ 110.358439, -7.780657000999923, 0.0 ], [ 110.358722, -7.780686, 0.0 ], [ 110.358757, -7.780686, 0.0 ], [ 110.358777000000103, -7.780667, 0.0 ], [ 110.358909, -7.780473, 0.0 ], [ 110.358975, -7.780382000999897, 0.0 ], [ 110.359038, -7.780332, 0.0 ], [ 110.35914000000011, -7.780232, 0.0 ], [ 110.359241000000154, -7.780104, 0.0 ], [ 110.359290000000144, -7.779957, 0.0 ], [ 110.359354, -7.779745999999852, 0.0 ], [ 110.359513, -7.779809, 0.0 ], [ 110.359747, -7.779872, 0.0 ], [ 110.360040000000168, -7.779944999999868, 0.0 ], [ 110.360071999000027, -7.779959, 0.0 ], [ 110.360244000000193, -7.779993000999982, 0.0 ], [ 110.360919, -7.780084, 0.0 ], [ 110.360879000000153, -7.780853000999974, 0.0 ], [ 110.360869, -7.781147, 0.0 ], [ 110.36086400000012, -7.781443, 0.0 ], [ 110.360835, -7.782021000999955, 0.0 ], [ 110.360831, -7.78205, 0.0 ], [ 110.360812, -7.782387, 0.0 ], [ 110.360813999160371, -7.782814996989178, 0.0 ], [ 110.360753383000045, -7.783953154999939, 0.0 ], [ 110.35972079900003, -7.783941939999973, 0.0 ], [ 110.359116997000029, -7.783932547999942, 0.0 ], [ 110.358544008000052, -7.783923635999936, 0.0 ], [ 110.358501266000033, -7.783921534999929, 0.0 ], [ 110.358525061000066, -7.784164162999947, 0.0 ], [ 110.358558308000028, -7.784548166999932, 0.0 ], [ 110.35858989300003, -7.784817467999973, 0.0 ], [ 110.358603292985634, -7.784986360899993, 0.0 ] ] ] ] } },
{ "type": "Feature", "properties": { "NAMOBJ": "Bumijo", "FCODE": "BA03070040", "REMARK": "Wilayah Administrasi Kelurahan/Desa", "METADATA": "TASWIL1000020221227_DATA_BATAS_DESAKELURAHAN", "SRS_ID": "4326", "KDCPUM": "34.71.02", "KDEPUM": "34.71.02.1001", "KDPKAB": "34.71", "KDPPUM": "34", "LUASWH": 0.0, "TIPADM": 2, "WADMKC": "Jetis", "WADMKD": "Kelurahan Bumijo", "WADMKK": "Kota Yogyakarta", "WADMPR": "Daerah Istimewa Yogyakarta", "UUPP": "Data RBI Skala 1:25.000", "luas": 0.63285105918999995, "SHAPE_Leng": 0.03078125595, "SHAPE_Area": 5.187892e-05, "Kampung": "Bumijo" }, "geometry": { "type": "MultiPolygon", "coordinates": [ [ [ [ 110.359170664079045, -7.78766415018884, 0.0 ], [ 110.358936286000059, -7.787417387999938, 0.0 ], [ 110.358809012000037, -7.787240762999941, 0.0 ], [ 110.358733687000012, -7.786640757999949, 0.0 ], [ 110.358679141, -7.786318676999911, 0.0 ], [ 110.358661374000036, -7.786134051999962, 0.0 ], [ 110.358644751000014, -7.785893009999934, 0.0 ], [ 110.358638101000011, -7.785685215999928, 0.0 ], [ 110.358638101000011, -7.785510668999963, 0.0 ], [ 110.358619682000011, -7.785260384999963, 0.0 ], [ 110.358607979000027, -7.785045475999935, 0.0 ], [ 110.35858989300003, -7.784817467999973, 0.0 ], [ 110.358558308000028, -7.784548166999932, 0.0 ], [ 110.358525061000066, -7.784164162999947, 0.0 ], [ 110.358501266000033, -7.783921534999929, 0.0 ], [ 110.358544008000052, -7.783923635999936, 0.0 ], [ 110.359116997000029, -7.783932547999942, 0.0 ], [ 110.35972079900003, -7.783941939999973, 0.0 ], [ 110.360753383000045, -7.783953154999939, 0.0 ], [ 110.360813999160371, -7.782814996989178, 0.0 ], [ 110.361455, -7.782832, 0.0 ], [ 110.361912000000189, -7.782834999999897, 0.0 ], [ 110.361959000000155, -7.782835, 0.0 ], [ 110.362515, -7.782836, 0.0 ], [ 110.362983000000128, -7.782854, 0.0 ], [ 110.363372000000155, -7.782859000999956, 0.0 ], [ 110.363341, -7.783229000999946, 0.0 ], [ 110.363276, -7.783712, 0.0 ], [ 110.363260000000167, -7.783838, 0.0 ], [ 110.363214, -7.784269999999895, 0.0 ], [ 110.363165000000109, -7.78466, 0.0 ], [ 110.363113, -7.785047, 0.0 ], [ 110.362962, -7.785655999999881, 0.0 ], [ 110.362935, -7.785816, 0.0 ], [ 110.362802, -7.786428000999911, 0.0 ], [ 110.362631000000164, -7.787195999999848, 0.0 ], [ 110.362628885229398, -7.787208737425142, 0.0 ], [ 110.36249887100017, -7.787185519999982, 0.0 ], [ 110.362379040999954, -7.787168005999889, 0.0 ], [ 110.362172912702803, -7.787140494851109, 0.0 ], [ 110.362042076107059, -7.787120675071361, 0.0 ], [ 110.361862067177228, -7.787098979831421, 0.0 ], [ 110.361675208000079, -7.787078766999968, 0.0 ], [ 110.361640640999966, -7.787290486999868, 0.0 ], [ 110.361574331000014, -7.787966262999936, 0.0 ], [ 110.361563270000048, -7.788096233999968, 0.0 ], [ 110.361513494000036, -7.788093467999868, 0.0 ], [ 110.361483075000109, -7.788092545999922, 0.0 ], [ 110.361358636, -7.78807964199991, 0.0 ], [ 110.361212995000159, -7.788065814999913, 0.0 ], [ 110.361108835000067, -7.788045535999914, 0.0 ], [ 110.360982551000092, -7.788017882999944, 0.0 ], [ 110.36088207800006, -7.787994837999933, 0.0 ], [ 110.360744133000054, -7.787961625999916, 0.0 ], [ 110.360583368000022, -7.787923649999862, 0.0 ], [ 110.360349183000096, -7.787866685999974, 0.0 ], [ 110.360178291000139, -7.787827444999897, 0.0 ], [ 110.360036514000086, -7.787799595999873, 0.0 ], [ 110.359806127000084, -7.787748960999963, 0.0 ], [ 110.359550422000012, -7.787716047999898, 0.0 ], [ 110.359360067000154, -7.787694370999927, 0.0 ], [ 110.359170664079045, -7.78766415018884, 0.0 ] ] ] ] } },
{ "type": "Feature", "properties": { "NAMOBJ": "Bumijo", "FCODE": "BA03070040", "REMARK": "Wilayah Administrasi Kelurahan/Desa", "METADATA": "TASWIL1000020221227_DATA_BATAS_DESAKELURAHAN", "SRS_ID": "4326", "KDCPUM": "34.71.02", "KDEPUM": "34.71.02.1001", "KDPKAB": "34.71", "KDPPUM": "34", "LUASWH": 0.0, "TIPADM": 2, "WADMKC": "Jetis", "WADMKD": "Kelurahan Bumijo", "WADMKK": "Kota Yogyakarta", "WADMPR": "Daerah Istimewa Yogyakarta", "UUPP": "Data RBI Skala 1:25.000", "luas": 0.63285105918999995, "SHAPE_Leng": 0.03078125595, "SHAPE_Area": 5.187892e-05, "Kampung": "Badran" }, "geometry": { "type": "MultiPolygon", "coordinates": [ [ [ [ 110.358603292985634, -7.784986360899993, 0.0 ], [ 110.358607979000027, -7.785045475999935, 0.0 ], [ 110.358619682000011, -7.785260384999963, 0.0 ], [ 110.358638101000011, -7.785510668999963, 0.0 ], [ 110.358638101000011, -7.785685215999928, 0.0 ], [ 110.358644751000014, -7.785893009999934, 0.0 ], [ 110.358661374000036, -7.786134051999962, 0.0 ], [ 110.358679141, -7.786318676999911, 0.0 ], [ 110.358733687000012, -7.786640757999949, 0.0 ], [ 110.358809012000037, -7.787240762999941, 0.0 ], [ 110.358936286000059, -7.787417387999938, 0.0 ], [ 110.359170664079045, -7.78766415018884, 0.0 ], [ 110.359076988000055, -7.787718579999867, 0.0 ], [ 110.358880779000089, -7.787841368999983, 0.0 ], [ 110.358756676196649, -7.787898619334458, 0.0 ], [ 110.358698603007426, -7.78850229215659, 0.0 ], [ 110.358857300615242, -7.788517934592599, 0.0 ], [ 110.358834884834849, -7.788738962808006, 0.0 ], [ 110.358677584052614, -7.788720784308143, 0.0 ], [ 110.358406000000144, -7.788690000999959, 0.0 ], [ 110.357914000000136, -7.788645, 0.0 ], [ 110.357594, -7.78863, 0.0 ], [ 110.357418000000123, -7.788629, 0.0 ], [ 110.3573880000001, -7.788629, 0.0 ], [ 110.356899, -7.788597, 0.0 ], [ 110.355489, -7.788521, 0.0 ], [ 110.355268, -7.788511, 0.0 ], [ 110.355279, -7.788256, 0.0 ], [ 110.355164000000144, -7.78771, 0.0 ], [ 110.355129, -7.787486999999868, 0.0 ], [ 110.355215, -7.787043, 0.0 ], [ 110.355238, -7.78685, 0.0 ], [ 110.355215, -7.786697999999854, 0.0 ], [ 110.355115, -7.786471, 0.0 ], [ 110.355098998999978, -7.786413, 0.0 ], [ 110.355095, -7.786405999999888, 0.0 ], [ 110.355032, -7.786120999999889, 0.0 ], [ 110.355021999, -7.785712999999899, 0.0 ], [ 110.355054000000109, -7.785531000999987, 0.0 ], [ 110.355218, -7.785171, 0.0 ], [ 110.355274052245562, -7.785089375388452, 0.0 ], [ 110.355369915000011, -7.785144951999942, 0.0 ], [ 110.355582696000027, -7.785248016999955, 0.0 ], [ 110.355644204000015, -7.785282926999971, 0.0 ], [ 110.355800465000044, -7.785376018999924, 0.0 ], [ 110.35579215300001, -7.785417576999943, 0.0 ], [ 110.355748932000012, -7.785485733999964, 0.0 ], [ 110.355714022000058, -7.785547240999959, 0.0 ], [ 110.355680775000025, -7.785630358999973, 0.0 ], [ 110.355752256000031, -7.785720125999941, 0.0 ], [ 110.35594185500004, -7.785870489999979, 0.0 ], [ 110.356012867000032, -7.785913096999934, 0.0 ], [ 110.356092437000044, -7.785953441999943, 0.0 ], [ 110.356124908000055, -7.785969905999893, 0.0 ], [ 110.356214833000038, -7.785994981999965, 0.0 ], [ 110.356364750000026, -7.786031302999938, 0.0 ], [ 110.356533621000011, -7.786066166999945, 0.0 ], [ 110.356817202000016, -7.78610223199995, 0.0 ], [ 110.356861055000039, -7.785494173999935, 0.0 ], [ 110.356976463000038, -7.785509452999931, 0.0 ], [ 110.357364351000044, -7.785572014999957, 0.0 ], [ 110.357533412000024, -7.785573683999922, 0.0 ], [ 110.357535781000038, -7.784831727999972, 0.0 ], [ 110.357537707000034, -7.784811830999954, 0.0 ], [ 110.357614508000012, -7.784831655999931, 0.0 ], [ 110.358209761000026, -7.784999746999934, 0.0 ], [ 110.358603292985634, -7.784986360899993, 0.0 ] ] ] ] } }
]
}
