{
"type": "FeatureCollection",
"name": "JalanAreaBumijo4326",
"crs": { "type": "name", "properties": { "name": "urn:ogc:def:crs:OGC:1.3:CRS84" } },
"features": [
{ "type": "Feature", "properties": { "Id": 0 }, "geometry": { "type": "MultiPolygon", "coordinates": [ [ [ [ 110.357050903195145, -7.782738384218188 ], [ 110.357091831796964, -7.782607463809461 ], [ 110.357662269259535, -7.782714904094574 ], [ 110.357922894875941, -7.782726235643096 ], [ 110.359583674958742, -7.782758955489525 ], [ 110.36051269763152, -7.782768615634643 ], [ 110.360641061413361, -7.782767165196415 ], [ 110.360691101531714, -7.782759913005361 ], [ 110.360736065116342, -7.782723652050052 ], [ 110.360757096470408, -7.782685215437387 ], [ 110.360767249537915, -7.782640251852793 ], [ 110.360767249537886, -7.782592387391744 ], [ 110.36079296365449, -7.78192502433922 ], [ 110.360830145298138, -7.780620125702746 ], [ 110.360851391951641, -7.780242997602927 ], [ 110.360859484534515, -7.780075976521649 ], [ 110.360919, -7.780084 ], [ 110.360916711642375, -7.780127993733588 ], [ 110.360888249443249, -7.780675180222698 ], [ 110.360870957587878, -7.78108944612623 ], [ 110.360869, -7.781147 ], [ 110.360864, -7.781443 ], [ 110.360854483069033, -7.781632682608261 ], [ 110.360835, -7.782021000999955 ], [ 110.360831, -7.78205 ], [ 110.360812, -7.782387 ], [ 110.360813999000044, -7.782815 ], [ 110.360923612169501, -7.782817906929183 ], [ 110.361111493557473, -7.782822890165728 ], [ 110.361426709636348, -7.782831249739443 ], [ 110.361455, -7.782832 ], [ 110.36161137163549, -7.782833026349877 ], [ 110.361749059046559, -7.782833930594912 ], [ 110.361912, -7.782835 ], [ 110.361959, -7.782835 ], [ 110.362154535484464, -7.782835351666318 ], [ 110.362356368486701, -7.782835714615216 ], [ 110.362413016492511, -7.782835816666902 ], [ 110.362492678448078, -7.782835959720733 ], [ 110.362515, -7.782836 ], [ 110.36268893514756, -7.782842689993731 ], [ 110.362822610054096, -7.782847831171549 ], [ 110.362983, -7.782854 ], [ 110.363057868597181, -7.782854962452611 ], [ 110.363218440822536, -7.782857026620231 ], [ 110.363372, -7.782859000999956 ], [ 110.363369372091171, -7.78289036345017 ], [ 110.363367357712249, -7.782914407744607 ], [ 110.363340408898694, -7.782913656749682 ], [ 110.363296826497546, -7.782912442218989 ], [ 110.363212340980581, -7.782910087822453 ], [ 110.363044310431235, -7.782905405238272 ], [ 110.362301248310899, -7.782884697986381 ], [ 110.362092911355987, -7.782883381825187 ], [ 110.361997756709258, -7.782880645376587 ], [ 110.361886295062803, -7.782877439972829 ], [ 110.36177821307993, -7.782874331761091 ], [ 110.361613062350401, -7.782869582371591 ], [ 110.361347946981638, -7.782866723275436 ], [ 110.361246293912274, -7.782863687220949 ], [ 110.361105182534146, -7.78285947267202 ], [ 110.361018984792025, -7.782856898219087 ], [ 110.360988702445084, -7.782861153592689 ], [ 110.360956212629119, -7.782872757098401 ], [ 110.360932802556334, -7.782892425040574 ], [ 110.360724691075404, -7.782892667762346 ], [ 110.360576952045406, -7.782890858567315 ], [ 110.360504372357795, -7.782887720057015 ], [ 110.360131272042992, -7.782879282370646 ], [ 110.359345756704471, -7.782869283164324 ], [ 110.358654576507462, -7.782853348174215 ], [ 110.358340607405097, -7.782849924641184 ], [ 110.358104072395321, -7.782849924641168 ], [ 110.358030933280446, -7.782867042306371 ], [ 110.357834309793532, -7.782841229627447 ], [ 110.357731462529159, -7.782837213996705 ], [ 110.357653699777302, -7.782832752199486 ], [ 110.357050903195145, -7.782738384218188 ] ] ] ] } },
{ "type": "Feature", "properties": { "Id": 0 }, "geometry": { "type": "MultiPolygon", "coordinates": [ [ [ [ 110.360932802556334, -7.782892425040574 ], [ 110.360898640675913, -7.782935044717068 ], [ 110.36087695604445, -7.782981978576944 ], [ 110.360870094674013, -7.783018362964571 ], [ 110.360865607380816, -7.783121570708643 ], [ 110.360848053576149, -7.783891087174029 ], [ 110.360826170197512, -7.7842193378558 ], [ 110.360809149791791, -7.784630259079631 ], [ 110.360794560872634, -7.784856387327061 ], [ 110.360789865185851, -7.784971705925103 ], [ 110.360769759710337, -7.785191932468451 ], [ 110.360749529742407, -7.785316424578868 ], [ 110.360724631320323, -7.785394232147857 ], [ 110.360676390627532, -7.785500050441728 ], [ 110.36057524078781, -7.785657221731123 ], [ 110.360516107035352, -7.785770820781881 ], [ 110.360249907889909, -7.786225314244359 ], [ 110.360106450184546, -7.786458736951396 ], [ 110.359909499775583, -7.786811302498471 ], [ 110.359831692206583, -7.786952328717309 ], [ 110.359775768016348, -7.787112806828401 ], [ 110.359734432745313, -7.787222223722316 ], [ 110.359710117879985, -7.787355955481544 ], [ 110.359707281794144, -7.787402787857347 ], [ 110.359707281794158, -7.787466527817882 ], [ 110.359715249289209, -7.787545206831671 ], [ 110.359731184279369, -7.787611934602841 ], [ 110.359753094890948, -7.787668703005187 ], [ 110.359773013628597, -7.787704556733017 ], [ 110.359806127000084, -7.787748960999963 ], [ 110.359787321450966, -7.787746540448803 ], [ 110.359550422000012, -7.787716047999917 ], [ 110.359444955838256, -7.787704037748409 ], [ 110.359360067000026, -7.787694370999927 ], [ 110.359299963306938, -7.787684780382234 ], [ 110.359232175039708, -7.787673963831852 ], [ 110.359170662000039, -7.787664147999978 ], [ 110.35910469178144, -7.78770248191265 ], [ 110.358967728845926, -7.787786955207747 ], [ 110.358880779000017, -7.787841368999983 ], [ 110.358822825659971, -7.787868103849285 ], [ 110.358763906233293, -7.78789528402264 ], [ 110.358719223, -7.787915896999942 ], [ 110.358717701171742, -7.787930191871804 ], [ 110.358716691591084, -7.787939675656491 ], [ 110.35871540835646, -7.787951729653495 ], [ 110.358571913747625, -7.787997362176726 ], [ 110.358345836075117, -7.788052138705316 ], [ 110.358184494300062, -7.788097951801948 ], [ 110.358012197219267, -7.788144760835473 ], [ 110.357837908264699, -7.788200533300939 ], [ 110.357751221918448, -7.78823088945714 ], [ 110.357697680351592, -7.788253835842946 ], [ 110.357665172971721, -7.788276782228714 ], [ 110.357643501385127, -7.788295904216874 ], [ 110.357629478593836, -7.788322037600702 ], [ 110.357618642800517, -7.788366655573093 ], [ 110.357614818402908, -7.788415097943088 ], [ 110.357613543603819, -7.788520906277584 ], [ 110.35761231979663, -7.78859933192501 ], [ 110.357611519379475, -7.788630821220869 ], [ 110.357586768873333, -7.78862995891402 ], [ 110.35756574260833, -7.788629839446603 ], [ 110.357541522205281, -7.788629701830665 ], [ 110.357517312666559, -7.788629564276448 ], [ 110.357493726021033, -7.788629430261426 ], [ 110.357503273472233, -7.788492223295351 ], [ 110.3575132328411, -7.788327017285154 ], [ 110.357517216588633, -7.788250330145124 ], [ 110.35752303286003, -7.788068989957418 ], [ 110.357676646164933, -7.788067715158202 ], [ 110.357697680351919, -7.788085562347151 ], [ 110.357736561727833, -7.788097035540043 ], [ 110.357768431708095, -7.788105959134501 ], [ 110.35780731308418, -7.78809767293965 ], [ 110.358365533494165, -7.787951991718742 ], [ 110.358625804999662, -7.787879398985909 ], [ 110.358714415329644, -7.787848340344542 ], [ 110.358740871322638, -7.787828382314725 ], [ 110.358767791455875, -7.787802390461962 ], [ 110.358783246172919, -7.787767341160644 ], [ 110.358796655895006, -7.787736929643673 ], [ 110.358800455324555, -7.787704456873804 ], [ 110.358803356200966, -7.787644988907055 ], [ 110.358804081420104, -7.787585520940334 ], [ 110.358801180543651, -7.787547084327706 ], [ 110.359019471494847, -7.787445553652809 ], [ 110.359084015995322, -7.787444103214586 ], [ 110.35915363702955, -7.787432499708859 ], [ 110.359213104996286, -7.787399864849098 ], [ 110.359293604317102, -7.787343297758784 ], [ 110.35958828823739, -7.787071627458283 ], [ 110.359698856754036, -7.786944556178057 ], [ 110.359754966150518, -7.786870293741551 ], [ 110.359799523612409, -7.786805107825063 ], [ 110.360233649439181, -7.786073519683186 ], [ 110.360545081802243, -7.785522568041984 ], [ 110.360590556084418, -7.785446471965083 ], [ 110.360640431103477, -7.785364324874814 ], [ 110.360669769350011, -7.785296846907822 ], [ 110.360676320561538, -7.7852369614033 ], [ 110.360685163675925, -7.785156125306872 ], [ 110.360703684362974, -7.784835649672512 ], [ 110.360728445843094, -7.784438703197079 ], [ 110.360753383352687, -7.78395315521715 ], [ 110.360768052476018, -7.783606963908209 ], [ 110.360775034978715, -7.783335409098411 ], [ 110.360783484393735, -7.783145766672888 ], [ 110.360785362041497, -7.78305751722736 ], [ 110.36078400112244, -7.782987390838156 ], [ 110.360780155699786, -7.782948552069445 ], [ 110.360769003974113, -7.782927402244872 ], [ 110.36075323774125, -7.782910866927484 ], [ 110.360742086015577, -7.782900868828606 ], [ 110.360731830280102, -7.782894408114946 ], [ 110.360727507890971, -7.782892664477067 ], [ 110.360932802556334, -7.782892425040574 ] ] ] ] } },
{ "type": "Feature", "properties": { "Id": 0 }, "geometry": { "type": "MultiPolygon", "coordinates": [ [ [ [ 110.358801180543651, -7.787547084327706 ], [ 110.358784787011501, -7.787142222614046 ], [ 110.358738946001267, -7.786803824276806 ], [ 110.358695397041586, -7.786414175690213 ], [ 110.358658724233436, -7.786077244265303 ], [ 110.358628927576831, -7.785336911950754 ], [ 110.358601422970736, -7.784919758758043 ], [ 110.358530369404903, -7.784218391302146 ], [ 110.358502864798808, -7.783936469089465 ], [ 110.358422643030977, -7.783186968572856 ], [ 110.358395116421235, -7.782907305405192 ], [ 110.358388206677489, -7.782872268497663 ], [ 110.358375588884442, -7.782860251551909 ], [ 110.358366575867493, -7.782854680688114 ], [ 110.358355232134073, -7.782850084109884 ], [ 110.358361841549723, -7.782850156505677 ], [ 110.358446771048392, -7.782851082433884 ], [ 110.358478646322794, -7.782851430003443 ], [ 110.358546233604955, -7.782852167144722 ], [ 110.358553435258912, -7.782852245336094 ], [ 110.358603874223718, -7.782852795664505 ], [ 110.358579804861137, -7.782864337313475 ], [ 110.358557501409791, -7.782881257173134 ], [ 110.358535582500707, -7.782916635061488 ], [ 110.358511981219252, -7.782952181187086 ], [ 110.358481338007536, -7.782994841344608 ], [ 110.35846451428344, -7.78302248031989 ], [ 110.358455201150733, -7.78305094546021 ], [ 110.358510474407296, -7.783573224924801 ], [ 110.358559410602552, -7.78408459056164 ], [ 110.358597301534815, -7.78448374092618 ], [ 110.358606953545689, -7.784591655021951 ], [ 110.358651415343815, -7.78510039800922 ], [ 110.358676510546402, -7.785681269619373 ], [ 110.358682748591079, -7.785861314770988 ], [ 110.358685587066475, -7.786038554452786 ], [ 110.358693980954214, -7.786148097228917 ], [ 110.358707632118325, -7.786275505094208 ], [ 110.358748297568511, -7.78656086692289 ], [ 110.358857989375807, -7.787262234378806 ], [ 110.358888932057695, -7.787343458918727 ], [ 110.358917296182753, -7.787396319333601 ], [ 110.358948238864627, -7.787422104901838 ], [ 110.358976602989685, -7.787437576242771 ], [ 110.359001455455385, -7.787443755009522 ], [ 110.359019471494875, -7.787445553652809 ], [ 110.359015252484554, -7.787447516095654 ], [ 110.358898198667774, -7.787501959606657 ], [ 110.358873082456512, -7.78751364189884 ], [ 110.358868123784163, -7.787515948227938 ], [ 110.358801180543651, -7.787547084327706 ] ] ] ] } },
{ "type": "Feature", "properties": { "Id": 0 }, "geometry": { "type": "MultiPolygon", "coordinates": [ [ [ [ 110.35752303286003, -7.788068989957418 ], [ 110.357546668461737, -7.786795014421441 ], [ 110.357546668461737, -7.786087360180238 ], [ 110.357532152477432, -7.785524865783388 ], [ 110.357535781473544, -7.785129305207547 ], [ 110.357535781473544, -7.784831727526607 ], [ 110.357557555450228, -7.7846067297679 ], [ 110.357700884990294, -7.783834019400538 ], [ 110.357809229717475, -7.783358359622576 ], [ 110.357873285234305, -7.783060702303748 ], [ 110.357891888816738, -7.782950772043965 ], [ 110.357886815112451, -7.78290849117481 ], [ 110.35786990276479, -7.782879740183788 ], [ 110.357856820671543, -7.782858091945816 ], [ 110.357848840424708, -7.782850555046017 ], [ 110.357834309793517, -7.782841229627447 ], [ 110.357834897783817, -7.782841307129214 ], [ 110.357840954958718, -7.782842101954245 ], [ 110.357853279363539, -7.782843720213434 ], [ 110.357874041445328, -7.782846445766945 ], [ 110.357902988669096, -7.782850245952724 ], [ 110.357916509843562, -7.782852021041728 ], [ 110.357923686017514, -7.782852962980163 ], [ 110.357948778988458, -7.782856257100178 ], [ 110.357957044020225, -7.782857342379678 ], [ 110.357974505298785, -7.782859634588439 ], [ 110.357987280629175, -7.782861311328366 ], [ 110.358004276306673, -7.782863542663104 ], [ 110.358016686796731, -7.782865172350343 ], [ 110.358027062110224, -7.782866534103001 ], [ 110.358030933280446, -7.782867042306371 ], [ 110.358013008637911, -7.782881850906497 ], [ 110.357999541660178, -7.782906304102957 ], [ 110.357985720288255, -7.782944933065419 ], [ 110.357977923616914, -7.782975056568271 ], [ 110.357893108513579, -7.783407773643932 ], [ 110.357805234597592, -7.783797122687032 ], [ 110.357771977700352, -7.783943074501959 ], [ 110.357746021097498, -7.784091892358442 ], [ 110.35770449053291, -7.784308197382392 ], [ 110.357685455690785, -7.784423271655135 ], [ 110.357667286068803, -7.784504602344121 ], [ 110.357645709642668, -7.784609618433256 ], [ 110.357627485944406, -7.784728694348943 ], [ 110.357614507642964, -7.784831655540355 ], [ 110.357613039182056, -7.784883625044315 ], [ 110.357608451102379, -7.785376744200701 ], [ 110.357613263889192, -7.785801999877812 ], [ 110.357619941225323, -7.786042825239268 ], [ 110.357628924132726, -7.786356488673829 ], [ 110.357626955276331, -7.786668552412583 ], [ 110.357624986419964, -7.786891033185285 ], [ 110.357607585882505, -7.787358098220136 ], [ 110.357602394561951, -7.787553637961782 ], [ 110.357597203241369, -7.787740525502483 ], [ 110.357596130368535, -7.787821994626706 ], [ 110.357598899072855, -7.787901179569881 ], [ 110.357612188853523, -7.787987009403369 ], [ 110.357632123524525, -7.788027432486238 ], [ 110.357658703085875, -7.788053458306733 ], [ 110.357676646164933, -7.788067715158202 ], [ 110.357673926706269, -7.788067737335721 ], [ 110.357670961746834, -7.788067761970159 ], [ 110.357661480199937, -7.788067840963417 ], [ 110.357653587903471, -7.788067906514948 ], [ 110.357641700312783, -7.788068005330707 ], [ 110.357627669177091, -7.788068121797088 ], [ 110.35760044913286, -7.788068347332189 ], [ 110.357596452296093, -7.788068380472968 ], [ 110.357579450804764, -7.788068521656212 ], [ 110.357573814674311, -7.788068568537277 ], [ 110.35756141723347, -7.788068670998005 ], [ 110.357555404676361, -7.788068720894734 ], [ 110.357550686142858, -7.788068760332098 ], [ 110.357545816356946, -7.788068801012869 ], [ 110.357539390273615, -7.788068854667073 ], [ 110.357530709094107, -7.788068926725964 ], [ 110.35752303286003, -7.788068989957418 ] ] ] ] } },
{ "type": "Feature", "properties": { "Id": 0 }, "geometry": { "type": "MultiPolygon", "coordinates": [ [ [ [ 110.359897483143385, -7.786833082644299 ], [ 110.359905179576998, -7.786819132479072 ], [ 110.359907665943652, -7.786814625768769 ], [ 110.35991173790012, -7.786807295715337 ], [ 110.359917266741377, -7.786797397993924 ], [ 110.359924097784884, -7.786785170356517 ], [ 110.359933915361509, -7.786767595812496 ], [ 110.359942441919472, -7.786752332152079 ], [ 110.359951235209266, -7.786736590888719 ], [ 110.35995411770547, -7.78673143089558 ], [ 110.35995363053091, -7.786735161867849 ], [ 110.359954350969886, -7.786743862553638 ], [ 110.359958507348452, -7.786755638959558 ], [ 110.359967512835368, -7.786769493554744 ], [ 110.359998685674555, -7.786781269960672 ], [ 110.360117142463537, -7.786799280934458 ], [ 110.360331195959446, -7.786834610152214 ], [ 110.36046766372219, -7.786857470234303 ], [ 110.36063331272608, -7.786882148732023 ], [ 110.360879117490555, -7.786928017833098 ], [ 110.361031628874542, -7.786952845267692 ], [ 110.361160077061569, -7.78697218718451 ], [ 110.361250429508956, -7.786982141640515 ], [ 110.361508670296601, -7.787014470507144 ], [ 110.361752369301172, -7.787047969809993 ], [ 110.361873101568875, -7.787058361864753 ], [ 110.362198449132805, -7.787103074285479 ], [ 110.362350142990891, -7.78712087379831 ], [ 110.362638550606903, -7.78716208854704 ], [ 110.36263474584058, -7.787179176598184 ], [ 110.362628885000035, -7.787208736999946 ], [ 110.362609020545534, -7.787205190168438 ], [ 110.362563826247325, -7.787197119095047 ], [ 110.362531554799872, -7.787191356390527 ], [ 110.362473980283269, -7.787181882046092 ], [ 110.362403411859475, -7.787171567973023 ], [ 110.362316537649377, -7.787159663767646 ], [ 110.362224926977717, -7.787147437010685 ], [ 110.362172913000023, -7.787140494999951 ], [ 110.362137640948447, -7.787135151552462 ], [ 110.362092700325803, -7.787128343912887 ], [ 110.362042076000066, -7.787120674999936 ], [ 110.362025605641634, -7.78711869001635 ], [ 110.36198960566378, -7.78711435135157 ], [ 110.361839114967822, -7.787096497245017 ], [ 110.361784503790588, -7.787090589874011 ], [ 110.361706315958173, -7.787082132005896 ], [ 110.361675208000051, -7.787078766999968 ], [ 110.361671181393362, -7.787103429475668 ], [ 110.361664243283428, -7.787145924554435 ], [ 110.361657693743425, -7.787186037327642 ], [ 110.361652223980599, -7.787219540452383 ], [ 110.361645964798569, -7.787257876899159 ], [ 110.361640641000037, -7.787290486999953 ], [ 110.361636861847927, -7.787329002552645 ], [ 110.361631982679327, -7.787378727204549 ], [ 110.361628219112191, -7.787417082800445 ], [ 110.361624099001972, -7.787459070980308 ], [ 110.361616459438949, -7.787536926690836 ], [ 110.361607560687375, -7.787627616789161 ], [ 110.361600958173327, -7.787694900665098 ], [ 110.36159521932916, -7.787753384042931 ], [ 110.361586428299546, -7.78784297745213 ], [ 110.361576722079917, -7.787941895115455 ], [ 110.361574589589083, -7.787963626867391 ], [ 110.361574331000014, -7.787966262999936 ], [ 110.361572503844044, -7.787987729751996 ], [ 110.361570581407747, -7.788010323642803 ], [ 110.361567537655304, -7.788046087133805 ], [ 110.361565103562825, -7.788074686336047 ], [ 110.36156327, -7.788096233999968 ], [ 110.361546515990568, -7.788095302997243 ], [ 110.361516654558415, -7.788093643628846 ], [ 110.361510896927314, -7.788093389282592 ], [ 110.361514421198933, -7.788038488486693 ], [ 110.36151739407255, -7.787979031014458 ], [ 110.361530772003803, -7.787842278828299 ], [ 110.36157648053009, -7.787478748708059 ], [ 110.361586222042305, -7.787356979804898 ], [ 110.361591701642951, -7.787289398063641 ], [ 110.361608676227988, -7.787142788304252 ], [ 110.361614910795851, -7.787085897872711 ], [ 110.361616469437806, -7.787070311453101 ], [ 110.361607507246376, -7.787063297564269 ], [ 110.361594648450193, -7.787060569940837 ], [ 110.361556851382645, -7.787054725033476 ], [ 110.361435640047901, -7.78703960295296 ], [ 110.36125578119433, -7.787017306400839 ], [ 110.36103876142063, -7.78698609122794 ], [ 110.360870258944274, -7.786961535291895 ], [ 110.360731366289116, -7.786937752302992 ], [ 110.360619110581496, -7.786917774592327 ], [ 110.360476412648111, -7.786894942922971 ], [ 110.360286148736932, -7.786860695418972 ], [ 110.360076896487243, -7.786824849698094 ], [ 110.359989222876948, -7.786810237429703 ], [ 110.359956345273119, -7.786807802051637 ], [ 110.359924076513792, -7.786816934719386 ], [ 110.359897483143385, -7.786833082644299 ] ] ] ] } },
{ "type": "Feature", "properties": { "Id": 0 }, "geometry": { "type": "MultiPolygon", "coordinates": [ [ [ [ 110.359769702811832, -7.787698597262827 ], [ 110.359791269331893, -7.787709985952571 ], [ 110.35984329462012, -7.787722992274614 ], [ 110.35997818876028, -7.787749004918734 ], [ 110.360225491327085, -7.787801550514271 ], [ 110.360518929684318, -7.787862506308273 ], [ 110.36080528015853, -7.787930549985313 ], [ 110.361030674838702, -7.787985835472915 ], [ 110.36114391085799, -7.788008913620044 ], [ 110.361270018472752, -7.788025244102535 ], [ 110.361420621811277, -7.788044296332105 ], [ 110.361474659015002, -7.788048893544363 ], [ 110.361500740273058, -7.788050015340406 ], [ 110.361513674923572, -7.788050113899201 ], [ 110.361513427353785, -7.788053971681776 ], [ 110.361512512330862, -7.788068230560377 ], [ 110.361511838624963, -7.788078807130531 ], [ 110.361511268717194, -7.788087727985662 ], [ 110.361510896916656, -7.788093389633737 ], [ 110.361493355047045, -7.788092857961855 ], [ 110.361483075000038, -7.788092545999974 ], [ 110.361475072474548, -7.788091715906276 ], [ 110.361468109644122, -7.788090993963043 ], [ 110.361455786028444, -7.788089716011348 ], [ 110.361432518865442, -7.788087303319323 ], [ 110.361410147600765, -7.78808498378428 ], [ 110.361392159157305, -7.788083118315031 ], [ 110.3613737813927, -7.788081212568144 ], [ 110.361358636, -7.788079641999944 ], [ 110.361346968707039, -7.788078534364005 ], [ 110.361313353858947, -7.788075342684822 ], [ 110.36129143324645, -7.788073261692531 ], [ 110.36127438488883, -7.788071643021039 ], [ 110.361261286814099, -7.788070399642486 ], [ 110.36124842444552, -7.788069178633383 ], [ 110.361217871650823, -7.7880662779839 ], [ 110.361212995000045, -7.788065814999913 ], [ 110.361199758310377, -7.788063237782371 ], [ 110.36119143547262, -7.788061617360384 ], [ 110.361167758203209, -7.788057007889124 ], [ 110.361148012062017, -7.788053163415832 ], [ 110.3611465113284, -7.788052871236719 ], [ 110.361129032218201, -7.788049468310847 ], [ 110.361115886417537, -7.788046908598737 ], [ 110.361105536632564, -7.788044813753803 ], [ 110.361087443363175, -7.788040851856072 ], [ 110.361070512062085, -7.788037144419881 ], [ 110.361055219887092, -7.788033795558468 ], [ 110.361019345859987, -7.788025940382421 ], [ 110.360985678144729, -7.788018567785838 ], [ 110.360955413054114, -7.788011658502167 ], [ 110.360933330675039, -7.788006593575038 ], [ 110.360893854791939, -7.787997539129479 ], [ 110.36088207800006, -7.787994837999952 ], [ 110.360868915424561, -7.787991669061067 ], [ 110.360833759187756, -7.787983204631542 ], [ 110.360803864936585, -7.787976007207559 ], [ 110.360778241863571, -7.787969838139392 ], [ 110.360744133000054, -7.787961625999967 ], [ 110.360729151127231, -7.787958086973394 ], [ 110.360703891266098, -7.787952120317374 ], [ 110.360680311523055, -7.787946550244348 ], [ 110.360662896919791, -7.787942436366738 ], [ 110.360647564260589, -7.787938814477234 ], [ 110.360605444315155, -7.787928865024979 ], [ 110.360583368000022, -7.787923649999932 ], [ 110.360564169956248, -7.787918980267336 ], [ 110.360530886643758, -7.787910884075444 ], [ 110.360502164284924, -7.787903897741939 ], [ 110.360479491734608, -7.787898382935365 ], [ 110.360452931443291, -7.787891922208238 ], [ 110.360432108029585, -7.787886856926039 ], [ 110.360403556348331, -7.787879912137505 ], [ 110.360379732930795, -7.787874116873734 ], [ 110.360359330206521, -7.78786915417613 ], [ 110.360330183241445, -7.787862323249923 ], [ 110.360290234778233, -7.787853150230207 ], [ 110.360250164503128, -7.787843948962379 ], [ 110.360226621163648, -7.787838542896876 ], [ 110.360197978874439, -7.787831965819407 ], [ 110.36017829100004, -7.78782744499993 ], [ 110.360129937312465, -7.787817946972447 ], [ 110.3600934872658, -7.787810786958231 ], [ 110.360049462128885, -7.787802139521095 ], [ 110.360012493594411, -7.787794316746811 ], [ 110.359973614691611, -7.787785771863232 ], [ 110.359950594059853, -7.787780712312191 ], [ 110.359910416537033, -7.787771882001173 ], [ 110.359863608461339, -7.787761594621442 ], [ 110.359845241612987, -7.78775755783117 ], [ 110.359818817060045, -7.787751750266714 ], [ 110.359806127000056, -7.787748960999963 ], [ 110.359803738023487, -7.787745757523867 ], [ 110.359799270626496, -7.78773976700896 ], [ 110.359793756612731, -7.787732372509717 ], [ 110.359788123880421, -7.787724819106323 ], [ 110.359784426550704, -7.787719861291442 ], [ 110.359781563760777, -7.787716022332213 ], [ 110.359779230962971, -7.787712894616882 ], [ 110.359776964968844, -7.787709856104176 ], [ 110.359774393643903, -7.787706407757563 ], [ 110.359773350980319, -7.787705009050551 ], [ 110.359773014, -7.787704556999924 ], [ 110.359772516881861, -7.787703662328522 ], [ 110.35977171399702, -7.787702216958952 ], [ 110.35977023343905, -7.787699551914072 ], [ 110.359769702811832, -7.787698597262827 ] ] ] ] } },
{ "type": "Feature", "properties": { "Id": 0 }, "geometry": { "type": "MultiPolygon", "coordinates": [ [ [ [ 110.360676390627532, -7.785500050441728 ], [ 110.360687389745081, -7.785475922705282 ], [ 110.360696371014797, -7.785456222634245 ], [ 110.360706193015361, -7.785434677206598 ], [ 110.360716698938461, -7.785411632801665 ], [ 110.360724631000025, -7.785394231999921 ], [ 110.36072638905415, -7.785388738830811 ], [ 110.360733916907577, -7.785365214937725 ], [ 110.360744398944803, -7.78533245922676 ], [ 110.360749529742407, -7.785316424578868 ], [ 110.360739033719369, -7.78545850750015 ], [ 110.360721513012379, -7.785651235276495 ], [ 110.36069667254344, -7.785916927063506 ], [ 110.360665179072683, -7.786272247000261 ], [ 110.360638775157028, -7.786758072375536 ], [ 110.360631746623071, -7.786881915641561 ], [ 110.360624454149701, -7.786880829211021 ], [ 110.360619158010635, -7.786880040137329 ], [ 110.360614649914311, -7.786879368504485 ], [ 110.360607415544123, -7.786878290112148 ], [ 110.360598945139174, -7.786877028170372 ], [ 110.360590423286425, -7.786875758822251 ], [ 110.360576392367619, -7.786873668752658 ], [ 110.360574368379119, -7.786873367164376 ], [ 110.360575765648719, -7.786854326934481 ], [ 110.360584138210498, -7.786726495856639 ], [ 110.360591314692044, -7.786647554559454 ], [ 110.360600085947269, -7.786511201409752 ], [ 110.360612844136682, -7.786311854699687 ], [ 110.360622412778753, -7.78614440346323 ], [ 110.360647380954134, -7.785818421755558 ], [ 110.360676390627532, -7.785500050441728 ] ] ] ] } },
{ "type": "Feature", "properties": { "Id": 0 }, "geometry": { "type": "MultiPolygon", "coordinates": [ [ [ [ 110.360769759710337, -7.785191932468451 ], [ 110.360779063668446, -7.785297657676759 ], [ 110.360793299242857, -7.785366645460327 ], [ 110.360834910921852, -7.785406067050943 ], [ 110.360879807733369, -7.785430158022998 ], [ 110.361023258521428, -7.78545643908339 ], [ 110.361327680804507, -7.785510096248382 ], [ 110.361505077962292, -7.78554075748554 ], [ 110.361722140053899, -7.785571418722702 ], [ 110.362082287918795, -7.785625927588744 ], [ 110.362417128095871, -7.785676542964338 ], [ 110.362724411246617, -7.785725404108825 ], [ 110.362840031062646, -7.785746633736058 ], [ 110.362904373163673, -7.785757085244856 ], [ 110.362943966300293, -7.785762866368823 ], [ 110.36294247335897, -7.785771712555028 ], [ 110.362938775202025, -7.785793628639494 ], [ 110.362936568215758, -7.785806706404227 ], [ 110.362935, -7.785816 ], [ 110.362847543084598, -7.785797584841435 ], [ 110.362738128851916, -7.785778641481745 ], [ 110.362665764401427, -7.785764719745441 ], [ 110.362568802161633, -7.785745327297479 ], [ 110.362469288283975, -7.785725934849523 ], [ 110.36239273914731, -7.785711645677351 ], [ 110.362167010270653, -7.785675842136078 ], [ 110.362045066150344, -7.785658321429133 ], [ 110.361923822858344, -7.785642903207012 ], [ 110.361832715182231, -7.785630288298028 ], [ 110.361698885014377, -7.785606167346103 ], [ 110.361556152769978, -7.785580650967227 ], [ 110.361405446657159, -7.785562311069873 ], [ 110.361241184968051, -7.785533605143626 ], [ 110.360930204100441, -7.78548018022533 ], [ 110.360865615766386, -7.785473003743769 ], [ 110.360831328132221, -7.785469814196421 ], [ 110.360798635271777, -7.785469814196436 ], [ 110.360765837692156, -7.785471040513604 ], [ 110.360750160428964, -7.785473548875697 ], [ 110.360737309140021, -7.785477477872558 ], [ 110.360737841072037, -7.785471627778522 ], [ 110.360739034000048, -7.785458507999977 ], [ 110.360739298052678, -7.785454924161844 ], [ 110.360740290006135, -7.785441500917223 ], [ 110.360741184854277, -7.785429393104482 ], [ 110.360742987990577, -7.785404978461593 ], [ 110.36074522192088, -7.785374741173537 ], [ 110.360747054985254, -7.785349923866716 ], [ 110.360748654555138, -7.785328269083626 ], [ 110.360749530000035, -7.785316424999962 ], [ 110.360752157012868, -7.785300256920995 ], [ 110.360755408999452, -7.785280244670213 ], [ 110.360759632396878, -7.785254254076368 ], [ 110.360763110453775, -7.785232852512131 ], [ 110.36076644252951, -7.785212347316595 ], [ 110.360769759710337, -7.785191932468451 ] ] ] ] } },
{ "type": "Feature", "properties": { "Id": 0 }, "geometry": { "type": "MultiPolygon", "coordinates": [ [ [ [ 110.358629053060227, -7.784844523181089 ], [ 110.359040148105933, -7.784809229035943 ], [ 110.359240740732957, -7.7847980157835 ], [ 110.359411431353465, -7.784798015783484 ], [ 110.359593335226407, -7.784790540281858 ], [ 110.359881142039157, -7.784773097444751 ], [ 110.360058062244349, -7.784765621943121 ], [ 110.360262392622175, -7.78477683519557 ], [ 110.360460493415303, -7.784778081112512 ], [ 110.360618724866427, -7.784785556614131 ], [ 110.360688496214962, -7.784789294364922 ], [ 110.360706522489451, -7.784790152218803 ], [ 110.360705702893043, -7.784803291009355 ], [ 110.36070495150031, -7.784815336440018 ], [ 110.360703684362974, -7.784835649672512 ], [ 110.360668342262613, -7.784831330605705 ], [ 110.360564426809603, -7.784826450598229 ], [ 110.360494671408802, -7.784822144709296 ], [ 110.360409414807904, -7.784818412938897 ], [ 110.360265023998878, -7.784816977642581 ], [ 110.360208760383443, -7.784813245872149 ], [ 110.360082486203453, -7.784806834881966 ], [ 110.360053253823253, -7.784804234252654 ], [ 110.3599884294877, -7.784806069053688 ], [ 110.3599334705507, -7.784810019326058 ], [ 110.359847261284258, -7.784812301143735 ], [ 110.359737014368037, -7.784819794411613 ], [ 110.359655269757752, -7.784825344971549 ], [ 110.359594970492765, -7.784829634040626 ], [ 110.359546024625672, -7.784830389627365 ], [ 110.35945266422749, -7.784834972670103 ], [ 110.35941116622287, -7.784837394732648 ], [ 110.359240330079302, -7.784832873549277 ], [ 110.359204614882344, -7.784833555485153 ], [ 110.359059625292431, -7.784841681278729 ], [ 110.359004435065586, -7.784846017653708 ], [ 110.358892871964187, -7.784857844130895 ], [ 110.358793529555825, -7.784867305312646 ], [ 110.358662981016451, -7.784878579887537 ], [ 110.35863237896595, -7.78488257902373 ], [ 110.358629053060227, -7.784844523181089 ] ] ] ] } }
]
}
