{
"type": "FeatureCollection",
"name": "JalanGarisBumijo4326",
"crs": { "type": "name", "properties": { "name": "urn:ogc:def:crs:OGC:1.3:CRS84" } },
"features": [
{ "type": "Feature", "properties": { "Id": 0 }, "geometry": { "type": "MultiLineString", "coordinates": [ [ [ 110.359354, -7.779745999999852 ], [ 110.359514991971253, -7.779822272063523 ], [ 110.359792519969204, -7.779898970710214 ], [ 110.359961055153377, -7.779945393575331 ], [ 110.360123535181344, -7.77998273370597 ], [ 110.360351612736011, -7.780036220920117 ], [ 110.360457577971644, -7.780054386389078 ], [ 110.360560515629047, -7.780069524279867 ], [ 110.360779510449234, -7.780101818446905 ], [ 110.360857811942779, -7.780110496783676 ] ] ] } },
{ "type": "Feature", "properties": { "Id": 0 }, "geometry": { "type": "MultiLineString", "coordinates": [ [ [ 110.359051789092575, -7.780318481281761 ], [ 110.359102989043976, -7.78035550426686 ], [ 110.359109296498474, -7.780394925857471 ], [ 110.359109296498474, -7.780481653356834 ], [ 110.359093527862242, -7.780801756672631 ], [ 110.359085643544105, -7.780968904216835 ] ] ] } },
{ "type": "Feature", "properties": { "Id": 0 }, "geometry": { "type": "MultiLineString", "coordinates": [ [ [ 110.358363503078692, -7.780882933612018 ], [ 110.358430109798192, -7.780907154237292 ], [ 110.358528001492019, -7.780923301320811 ], [ 110.358645067847505, -7.780927338091688 ], [ 110.358793419177317, -7.780936420826169 ], [ 110.358892320063859, -7.780945503560647 ], [ 110.358974064674172, -7.780953577102411 ], [ 110.359028453993588, -7.780959754524452 ], [ 110.359045914545462, -7.780962400062601 ], [ 110.359070518050387, -7.780966368369856 ], [ 110.359085643544091, -7.780968904216835 ] ] ] } },
{ "type": "Feature", "properties": { "Id": 0 }, "geometry": { "type": "MultiLineString", "coordinates": [ [ [ 110.359085643544105, -7.780968904216835 ], [ 110.359258657021243, -7.780989908040332 ], [ 110.359409026736472, -7.781009082702004 ], [ 110.359492789732215, -7.781015137858314 ], [ 110.359629661494878, -7.781022517580096 ], [ 110.359795232175472, -7.781033555625463 ], [ 110.359946611083444, -7.781046170534468 ], [ 110.360135834718392, -7.781066669761588 ], [ 110.360332942671491, -7.781082438397831 ], [ 110.360523743170077, -7.781102937624944 ], [ 110.36067827580527, -7.781117129397566 ], [ 110.360754667645338, -7.78112033869097 ], [ 110.360794879825434, -7.781118751368078 ], [ 110.360815968369749, -7.781117668379586 ] ] ] } },
{ "type": "Feature", "properties": { "Id": 0 }, "geometry": { "type": "MultiLineString", "coordinates": [ [ [ 110.359182967567463, -7.780364208554097 ], [ 110.359260675406873, -7.780395493528411 ], [ 110.359325263740956, -7.780428796888169 ], [ 110.359398934809491, -7.780459072669749 ], [ 110.359474624263456, -7.780483293295034 ], [ 110.35952811147763, -7.78049944037854 ], [ 110.359569488379123, -7.780513569076617 ] ] ] } },
{ "type": "Feature", "properties": { "Id": 0 }, "geometry": { "type": "MultiLineString", "coordinates": [ [ [ 110.359569488379123, -7.780513569076617 ], [ 110.359584626269935, -7.78053072535285 ], [ 110.359574534342713, -7.780570083868937 ], [ 110.359553341295609, -7.780689168609855 ], [ 110.35952811147763, -7.78081430850711 ], [ 110.359499006359599, -7.780946270547146 ], [ 110.359483067660932, -7.781014435057982 ] ] ] } },
{ "type": "Feature", "properties": { "Id": 0 }, "geometry": { "type": "MultiLineString", "coordinates": [ [ [ 110.359569488379123, -7.780513569076617 ], [ 110.359594718197144, -7.780410631419203 ], [ 110.359630039942346, -7.780279436365637 ], [ 110.359657288145769, -7.780184572249978 ], [ 110.359678481192887, -7.780114937952329 ], [ 110.35969664666186, -7.780071542665378 ], [ 110.359716830516234, -7.780027138185709 ] ] ] } },
{ "type": "Feature", "properties": { "Id": 0 }, "geometry": { "type": "MultiLineString", "coordinates": [ [ [ 110.359594718197144, -7.780410631419203 ], [ 110.35965526976031, -7.780427787695454 ], [ 110.359717839708949, -7.780445953164401 ], [ 110.359738023563338, -7.780444943971686 ], [ 110.359758207417741, -7.78039246595026 ], [ 110.359803621090137, -7.780275399594758 ] ] ] } },
{ "type": "Feature", "properties": { "Id": 0 }, "geometry": { "type": "MultiLineString", "coordinates": [ [ [ 110.358566750612653, -7.780924637497384 ], [ 110.358543202457909, -7.781093476443232 ], [ 110.358229406596621, -7.781091899579596 ], [ 110.35810798809753, -7.781096630170479 ], [ 110.358041759825284, -7.781110821943089 ], [ 110.357983415871189, -7.781148666670091 ] ] ] } },
{ "type": "Feature", "properties": { "Id": 0 }, "geometry": { "type": "MultiLineString", "coordinates": [ [ [ 110.357954, -7.780986000999981 ], [ 110.357983415871189, -7.781148666670091 ], [ 110.357991110965713, -7.781199820126062 ], [ 110.357997166122018, -7.781287619892697 ], [ 110.35801051821484, -7.781647054129448 ], [ 110.358011294820216, -7.7817579037001 ], [ 110.358020377554695, -7.781835611539513 ], [ 110.358036524638194, -7.781899190680866 ], [ 110.358063835916226, -7.781940252209652 ], [ 110.358109564961325, -7.782039594617995 ], [ 110.358141480681141, -7.782146442897207 ], [ 110.358163682920988, -7.782223141543905 ], [ 110.358193958702572, -7.782313968888694 ], [ 110.358221206906009, -7.782391676728108 ], [ 110.358241390760398, -7.782459292640337 ], [ 110.358262583807502, -7.78253599128703 ], [ 110.358289832010954, -7.782615717511891 ], [ 110.358297905552703, -7.782652048449799 ], [ 110.358300933130863, -7.78268535180956 ], [ 110.358300400213309, -7.782733673061684 ] ] ] } },
{ "type": "Feature", "properties": { "Id": 0 }, "geometry": { "type": "MultiLineString", "coordinates": [ [ [ 110.358016318282665, -7.781800882212323 ], [ 110.358433137377247, -7.781818455263291 ] ] ] } },
{ "type": "Feature", "properties": { "Id": 0 }, "geometry": { "type": "MultiLineString", "coordinates": [ [ [ 110.358430181084728, -7.782736229938566 ], [ 110.358436164955549, -7.78243305362964 ], [ 110.358440201726438, -7.782279656336238 ], [ 110.358437174148264, -7.782192865762339 ], [ 110.358433137377389, -7.782101029224839 ], [ 110.358431118991945, -7.781966806593118 ], [ 110.35843212818466, -7.781877997633767 ], [ 110.358433137377261, -7.781818455263291 ] ] ] } },
{ "type": "Feature", "properties": { "Id": 0 }, "geometry": { "type": "MultiLineString", "coordinates": [ [ [ 110.358433137377247, -7.781818455263291 ], [ 110.358433137377503, -7.781784142710847 ], [ 110.358440201726538, -7.781728637111253 ], [ 110.358445247690142, -7.781683223438868 ], [ 110.358451302846447, -7.781654966042714 ], [ 110.358474514278996, -7.781648910886392 ], [ 110.358609746103468, -7.781660012006308 ], [ 110.358737913578864, -7.781669094740798 ], [ 110.3589106116831, -7.781684800302489 ], [ 110.359033607045816, -7.781697415211482 ] ] ] } },
{ "type": "Feature", "properties": { "Id": 0 }, "geometry": { "type": "MultiLineString", "coordinates": [ [ [ 110.358437174148236, -7.782192865762339 ], [ 110.358609430730738, -7.782197280980482 ], [ 110.358757655911461, -7.782205165298613 ], [ 110.358883805001426, -7.782213049616733 ], [ 110.359004340456906, -7.782219104773053 ] ] ] } },
{ "type": "Feature", "properties": { "Id": 0 }, "geometry": { "type": "MultiLineString", "coordinates": [ [ [ 110.359085643544105, -7.780968904216835 ], [ 110.359080029910857, -7.781062569916227 ], [ 110.359070947176406, -7.781136240984768 ], [ 110.359065901212787, -7.781178627078996 ], [ 110.359054800092878, -7.781263399267449 ], [ 110.359048744936544, -7.781360281768546 ], [ 110.359047735743843, -7.781470283775014 ], [ 110.359046726551114, -7.78152881695275 ], [ 110.35903865300935, -7.78162771783929 ], [ 110.359033607045802, -7.781697415211482 ], [ 110.359035183909384, -7.781880331391942 ], [ 110.35903045331851, -7.7819796738003 ], [ 110.359023515118579, -7.78208589133405 ], [ 110.35901717738831, -7.782135341777314 ], [ 110.359011364438246, -7.782178615961138 ], [ 110.359004340456892, -7.782219104773053 ] ] ] } },
{ "type": "Feature", "properties": { "Id": 0 }, "geometry": { "type": "MultiLineString", "coordinates": [ [ [ 110.359033607045816, -7.781697415211482 ], [ 110.359152691786704, -7.781707444064148 ], [ 110.359262693793156, -7.781711480835021 ], [ 110.35938985207585, -7.781714508413185 ], [ 110.359524074707565, -7.781719554376771 ], [ 110.359598754968829, -7.781720563569502 ], [ 110.359676462808252, -7.781720563569506 ], [ 110.359728294946365, -7.781721330555965 ], [ 110.359792883280406, -7.781724559972671 ], [ 110.359854888081117, -7.781726497622693 ], [ 110.359903975215019, -7.781727143506028 ] ] ] } },
{ "type": "Feature", "properties": { "Id": 0 }, "geometry": { "type": "MultiLineString", "coordinates": [ [ [ 110.359026125525062, -7.782045928383519 ], [ 110.359353710361546, -7.782055363254271 ], [ 110.35989041166485, -7.782072771828689 ] ] ] } },
{ "type": "Feature", "properties": { "Id": 0 }, "geometry": { "type": "MultiLineString", "coordinates": [ [ [ 110.359903975215005, -7.781727143506028 ], [ 110.359890411664836, -7.782072771828689 ], [ 110.359894574584786, -7.782241433161982 ], [ 110.359899305175659, -7.782400696388065 ], [ 110.359897728312035, -7.782569420795893 ], [ 110.359890985783395, -7.782717426196873 ], [ 110.359889237368265, -7.782762132782509 ] ] ] } },
{ "type": "Feature", "properties": { "Id": 0 }, "geometry": { "type": "MultiLineString", "coordinates": [ [ [ 110.363044310431235, -7.782905405238272 ], [ 110.363037155300745, -7.782962000688551 ], [ 110.36304404472304, -7.782993003088887 ], [ 110.363087677730945, -7.783002188985289 ], [ 110.363157720191012, -7.78301022664465 ], [ 110.36321628028054, -7.783019412541051 ], [ 110.363250727392042, -7.783037784333845 ], [ 110.363259913288459, -7.783081417341744 ], [ 110.363256468577291, -7.783142273905403 ], [ 110.363246134443841, -7.783260542321555 ], [ 110.363242689732715, -7.783342067152095 ], [ 110.363238096784499, -7.783390293108204 ], [ 110.363238096784499, -7.783424740219703 ], [ 110.3632633579996, -7.783436222590207 ], [ 110.363312913578213, -7.783437704287302 ] ] ] } },
{ "type": "Feature", "properties": { "Id": 0 }, "geometry": { "type": "MultiLineString", "coordinates": [ [ [ 110.360823406440431, -7.784286062848543 ], [ 110.360922102654712, -7.784289362718388 ], [ 110.361032333411501, -7.784292807429531 ], [ 110.361104672345661, -7.784289362718389 ], [ 110.361133378271916, -7.784268694451478 ], [ 110.361149453590599, -7.78421128259898 ], [ 110.361163232435217, -7.784171094302235 ], [ 110.361416992823351, -7.784176835487482 ], [ 110.361786725153465, -7.784182576672739 ], [ 110.361975036029676, -7.78418946609503 ], [ 110.362305297711245, -7.784198580226626 ], [ 110.362552599265925, -7.784207837887831 ], [ 110.362713352452914, -7.784215875547183 ], [ 110.362863771506483, -7.784222764969488 ], [ 110.363001559952465, -7.78423195086588 ], [ 110.363216084473578, -7.784250424074818 ] ] ] } },
{ "type": "Feature", "properties": { "Id": 0 }, "geometry": { "type": "MultiLineString", "coordinates": [ [ [ 110.360854345674667, -7.783615256749101 ], [ 110.3611606489021, -7.783626255822008 ] ] ] } },
{ "type": "Feature", "properties": { "Id": 0 }, "geometry": { "type": "MultiLineString", "coordinates": [ [ [ 110.362755398960672, -7.784217801341437 ], [ 110.362771769012951, -7.783925873927248 ] ] ] } },
{ "type": "Feature", "properties": { "Id": 0 }, "geometry": { "type": "MultiLineString", "coordinates": [ [ [ 110.363276, -7.783712 ], [ 110.36313238721155, -7.783708785359993 ], [ 110.363044475312421, -7.78370340299881 ], [ 110.362944004570537, -7.783683667674516 ], [ 110.362822004383986, -7.783676491192963 ] ] ] } },
{ "type": "Feature", "properties": { "Id": 0 }, "geometry": { "type": "MultiLineString", "coordinates": [ [ [ 110.362190511913056, -7.784195412517723 ], [ 110.362195856367705, -7.783968932816633 ], [ 110.362172532802617, -7.783925873927248 ], [ 110.362177915163784, -7.783839756148514 ] ] ] } },
{ "type": "Feature", "properties": { "Id": 0 }, "geometry": { "type": "MultiLineString", "coordinates": [ [ [ 110.361589433299358, -7.784179513134625 ], [ 110.361566120110581, -7.784641727963138 ], [ 110.361878297058553, -7.784661463287436 ], [ 110.361878297058553, -7.784855228289624 ], [ 110.361860355854645, -7.785011316763606 ], [ 110.361793973400211, -7.785298376026127 ], [ 110.361761679233155, -7.785449082138929 ], [ 110.361743308327348, -7.785574622569487 ] ] ] } },
{ "type": "Feature", "properties": { "Id": 0 }, "geometry": { "type": "MultiLineString", "coordinates": [ [ [ 110.360793006549514, -7.784894559030405 ], [ 110.361358002145309, -7.78492340486447 ] ] ] } },
{ "type": "Feature", "properties": { "Id": 0 }, "geometry": { "type": "MultiLineString", "coordinates": [ [ [ 110.361275102947531, -7.785500828928265 ], [ 110.361327502098675, -7.785170993478377 ] ] ] } },
{ "type": "Feature", "properties": { "Id": 0 }, "geometry": { "type": "MultiLineString", "coordinates": [ [ [ 110.361860355854631, -7.785011316763606 ], [ 110.36210435622796, -7.785036434449096 ], [ 110.36229812123014, -7.785054375653003 ], [ 110.362508033315848, -7.785059758014171 ], [ 110.362639004104381, -7.785072316856902 ], [ 110.362777151374445, -7.785083081579248 ], [ 110.362992445821334, -7.785102816903547 ], [ 110.363097222855117, -7.785110631001699 ] ] ] } },
{ "type": "Feature", "properties": { "Id": 0 }, "geometry": { "type": "MultiLineString", "coordinates": [ [ [ 110.362639004104381, -7.785072316856902 ], [ 110.362630033502441, -7.785239170053244 ], [ 110.362624651141289, -7.785402435008791 ], [ 110.362608504057761, -7.785542376399268 ], [ 110.362576521409608, -7.785701888121442 ] ] ] } },
{ "type": "Feature", "properties": { "Id": 0 }, "geometry": { "type": "MultiLineString", "coordinates": [ [ [ 110.362639004104381, -7.785072316856902 ], [ 110.362624651141331, -7.784939551947996 ], [ 110.362626445261725, -7.784738610464252 ], [ 110.362631827622891, -7.784609433796118 ], [ 110.362827386745479, -7.784611227916509 ], [ 110.363005004664146, -7.784623786759248 ], [ 110.363167810439037, -7.784637631200196 ] ] ] } },
{ "type": "Feature", "properties": { "Id": 0 }, "geometry": { "type": "MultiLineString", "coordinates": [ [ [ 110.361878297058553, -7.784855228289624 ], [ 110.362118751822138, -7.784863272338114 ], [ 110.362344131373959, -7.784858938115971 ], [ 110.362500163371379, -7.784863272338124 ], [ 110.362625293210186, -7.784867640235441 ] ] ] } },
{ "type": "Feature", "properties": { "Id": 0 }, "geometry": { "type": "MultiLineString", "coordinates": [ [ [ 110.362625540881027, -7.784839901103124 ], [ 110.362759089802722, -7.784838567271872 ], [ 110.36294771515071, -7.784848275929487 ], [ 110.36313637192923, -7.784873058911945 ] ] ] } },
{ "type": "Feature", "properties": { "Id": 0 }, "geometry": { "type": "MultiLineString", "coordinates": [ [ [ 110.362629652348929, -7.785250731710069 ], [ 110.362809297432506, -7.785263140739021 ], [ 110.362930017655202, -7.785274680172066 ], [ 110.363053254898531, -7.785287958720657 ] ] ] } },
{ "type": "Feature", "properties": { "Id": 0 }, "geometry": { "type": "MultiLineString", "coordinates": [ [ [ 110.360700828143152, -7.785872479081712 ], [ 110.361579141164896, -7.785992337208397 ], [ 110.361802093552328, -7.786014701794692 ], [ 110.361983784144883, -7.786038279963196 ], [ 110.362108609742819, -7.786067405936052 ] ] ] } },
{ "type": "Feature", "properties": { "Id": 0 }, "geometry": { "type": "MultiLineString", "coordinates": [ [ [ 110.36213216991014, -7.785670836337148 ], [ 110.362115156151958, -7.785920987050727 ], [ 110.362113578109827, -7.785996733072824 ], [ 110.362108609742819, -7.786067405936052 ], [ 110.362105687899188, -7.786216080928487 ], [ 110.362100953772824, -7.7863865094782 ], [ 110.362097797688577, -7.786534845438143 ], [ 110.362078861183093, -7.786828361273765 ], [ 110.362067814888192, -7.78694198030691 ], [ 110.362049754951357, -7.787082639287533 ] ] ] } },
{ "type": "Feature", "properties": { "Id": 0 }, "geometry": { "type": "MultiLineString", "coordinates": [ [ [ 110.360428745499419, -7.786886362836208 ], [ 110.360401907375859, -7.787154637263973 ], [ 110.360389788012341, -7.787329358088279 ], [ 110.360381708436677, -7.787507108753482 ], [ 110.360361509497437, -7.787639411805411 ], [ 110.360345350346051, -7.787746466183293 ], [ 110.360331391978605, -7.787823549200342 ] ] ] } },
{ "type": "Feature", "properties": { "Id": 0 }, "geometry": { "type": "MultiLineString", "coordinates": [ [ [ 110.358716722874064, -7.786339297691358 ], [ 110.359148436953717, -7.786271312402973 ] ] ] } },
{ "type": "Feature", "properties": { "Id": 0 }, "geometry": { "type": "MultiLineString", "coordinates": [ [ [ 110.358817629404015, -7.787004173440213 ], [ 110.358990632741012, -7.78697196310737 ], [ 110.35892574007184, -7.786306382168948 ] ] ] } },
{ "type": "Feature", "properties": { "Id": 0 }, "geometry": { "type": "MultiLineString", "coordinates": [ [ [ 110.359239470258956, -7.785985884033241 ], [ 110.360035888394947, -7.786008075250657 ], [ 110.360233649439181, -7.786073519683186 ] ] ] } },
{ "type": "Feature", "properties": { "Id": 0 }, "geometry": { "type": "MultiLineString", "coordinates": [ [ [ 110.360036874671493, -7.783946856349863 ], [ 110.360035296629363, -7.784248262396139 ], [ 110.359995845576165, -7.784357147302897 ], [ 110.359926411722597, -7.784510217389218 ], [ 110.35989642892217, -7.784614368169603 ], [ 110.359879070458774, -7.784713784823613 ], [ 110.359875797278079, -7.784773421369674 ] ] ] } },
{ "type": "Feature", "properties": { "Id": 0 }, "geometry": { "type": "MultiLineString", "coordinates": [ [ [ 110.358544007707465, -7.783923635848521 ], [ 110.360036874671508, -7.783946856349863 ], [ 110.360753383352687, -7.78395315521715 ] ] ] } },
{ "type": "Feature", "properties": { "Id": 0 }, "geometry": { "type": "MultiLineString", "coordinates": [ [ [ 110.360107489295572, -7.782878979628501 ], [ 110.36010492773849, -7.783246501528394 ], [ 110.360101574398982, -7.783446616995628 ], [ 110.359929567807157, -7.783443460911375 ], [ 110.359929716459305, -7.783945189578839 ] ] ] } },
{ "type": "Feature", "properties": { "Id": 0 }, "geometry": { "type": "MultiLineString", "coordinates": [ [ [ 110.358501266381694, -7.783921535306528 ], [ 110.358306267432312, -7.783949065608891 ], [ 110.358169924592517, -7.783964214813314 ], [ 110.358042671275399, -7.783954115343694 ], [ 110.357851791299709, -7.783920787093972 ], [ 110.357780656128881, -7.783904988195058 ] ] ] } },
{ "type": "Feature", "properties": { "Id": 0 }, "geometry": { "type": "MultiLineString", "coordinates": [ [ [ 110.357720770600025, -7.784223405366149 ], [ 110.357931766474721, -7.784252996522566 ], [ 110.358230016436721, -7.784270354985955 ], [ 110.358383086523048, -7.784265620859582 ], [ 110.358458832545125, -7.784254574564684 ], [ 110.358532568271343, -7.784240096241937 ] ] ] } },
{ "type": "Feature", "properties": { "Id": 0 }, "geometry": { "type": "MultiLineString", "coordinates": [ [ [ 110.357793335435659, -7.783428139396354 ], [ 110.357687169945052, -7.783387535098412 ], [ 110.357655861589251, -7.783353196901732 ], [ 110.35762960296826, -7.783313808970249 ], [ 110.357515478961645, -7.783276440932682 ], [ 110.357340758137326, -7.783246142523835 ], [ 110.35721855455499, -7.783234023160302 ], [ 110.35717815667654, -7.783464291067482 ], [ 110.357225624183698, -7.78347540048404 ], [ 110.357171150169478, -7.783724352410008 ], [ 110.357066999389076, -7.784197765048125 ], [ 110.356952938504165, -7.784631789754739 ] ] ] } },
{ "type": "Feature", "properties": { "Id": 0 }, "geometry": { "type": "MultiLineString", "coordinates": [ [ [ 110.356832714417919, -7.784219367813625 ], [ 110.357044277308276, -7.784284227155363 ] ] ] } },
{ "type": "Feature", "properties": { "Id": 0 }, "geometry": { "type": "MultiLineString", "coordinates": [ [ [ 110.356902521951895, -7.783800522609837 ], [ 110.357034380627169, -7.783865159215346 ], [ 110.357126187561008, -7.783928727903098 ] ] ] } },
{ "type": "Feature", "properties": { "Id": 0 }, "geometry": { "type": "MultiLineString", "coordinates": [ [ [ 110.356952938504151, -7.784631789754739 ], [ 110.356933547522829, -7.784738399755995 ], [ 110.356913929303147, -7.784852652530848 ], [ 110.356891836713359, -7.785073578428635 ], [ 110.356879212376356, -7.785244006978365 ], [ 110.356836605238996, -7.785831038649621 ], [ 110.356817201633064, -7.786102232132539 ] ] ] } },
{ "type": "Feature", "properties": { "Id": 0 }, "geometry": { "type": "MultiLineString", "coordinates": [ [ [ 110.357541140601469, -7.784776349871429 ], [ 110.356952938504165, -7.784631789754739 ] ] ] } },
{ "type": "Feature", "properties": { "Id": 0 }, "geometry": { "type": "MultiLineString", "coordinates": [ [ [ 110.356952938504165, -7.784631789754739 ], [ 110.356781247521269, -7.784566143202287 ], [ 110.356605516750008, -7.784512616013336 ], [ 110.356530780674888, -7.78449443696804 ], [ 110.356472203751125, -7.784503526490679 ], [ 110.356374238895867, -7.784596441611131 ], [ 110.356289403351113, -7.784681277155873 ], [ 110.356233856268247, -7.784747933655318 ], [ 110.35608703522874, -7.78492366442658 ], [ 110.356008133122387, -7.784896837710432 ], [ 110.355968682069204, -7.785012034785697 ], [ 110.355957635774317, -7.785067266260153 ], [ 110.355872421499484, -7.785313440831955 ], [ 110.355829814362039, -7.785480713297434 ], [ 110.355812455898644, -7.785584864077813 ], [ 110.355802987645902, -7.785643251636507 ], [ 110.355815611982919, -7.785692170942442 ], [ 110.355842438699057, -7.785748980459023 ], [ 110.355888201920735, -7.785805789975601 ], [ 110.355941855353052, -7.785870489702797 ], [ 110.356012867248793, -7.785913096840227 ], [ 110.356124908239806, -7.785969906356809 ], [ 110.35628902462102, -7.786015669578489 ], [ 110.356533621150703, -7.786066166926548 ], [ 110.356817201633049, -7.786102232132539 ] ] ] } },
{ "type": "Feature", "properties": { "Id": 0 }, "geometry": { "type": "MultiLineString", "coordinates": [ [ [ 110.356364750042758, -7.786031303213954 ], [ 110.356618835425635, -7.785453886581277 ], [ 110.356645662141887, -7.785277145863059 ], [ 110.35666144256318, -7.785024659122727 ], [ 110.356698431870669, -7.784780251958102 ], [ 110.356732454458935, -7.784633304675221 ], [ 110.356760637265808, -7.784559865365851 ] ] ] } },
{ "type": "Feature", "properties": { "Id": 0 }, "geometry": { "type": "MultiLineString", "coordinates": [ [ [ 110.355899307822, -7.785819182385958 ], [ 110.356013687830924, -7.785535692285143 ] ] ] } },
{ "type": "Feature", "properties": { "Id": 0 }, "geometry": { "type": "MultiLineString", "coordinates": [ [ [ 110.356562300453774, -7.785582363995946 ], [ 110.356257085048597, -7.785439747323829 ] ] ] } },
{ "type": "Feature", "properties": { "Id": 0 }, "geometry": { "type": "MultiLineString", "coordinates": [ [ [ 110.356817201633064, -7.786102232132539 ], [ 110.357383849208489, -7.78620988798998 ], [ 110.357546668461751, -7.786244001754021 ] ] ] } },
{ "type": "Feature", "properties": { "Id": 0 }, "geometry": { "type": "MultiLineString", "coordinates": [ [ [ 110.357614507642964, -7.784831655540355 ], [ 110.358209761390228, -7.784999747097705 ] ] ] } },
{ "type": "Feature", "properties": { "Id": 0 }, "geometry": { "type": "MultiLineString", "coordinates": [ [ [ 110.357611541465374, -7.785044597135951 ], [ 110.358119988327118, -7.785209816065655 ], [ 110.358240284231826, -7.785224179755764 ], [ 110.358621484434451, -7.785224024291431 ] ] ] } },
{ "type": "Feature", "properties": { "Id": 0 }, "geometry": { "type": "MultiLineString", "coordinates": [ [ [ 110.357608918333597, -7.785326526969675 ], [ 110.358033806186498, -7.78542168049488 ], [ 110.358157693013737, -7.785439635107517 ], [ 110.358304920837426, -7.785446816952571 ], [ 110.358301329914894, -7.785570703779832 ], [ 110.358267216150892, -7.785778977286518 ], [ 110.358215147774217, -7.785796931899169 ], [ 110.358087670024432, -7.785807704666741 ], [ 110.357908123897971, -7.785807704666746 ], [ 110.357613065290366, -7.785784451774027 ] ] ] } },
{ "type": "Feature", "properties": { "Id": 0 }, "geometry": { "type": "MultiLineString", "coordinates": [ [ [ 110.357610423833364, -7.785551053822508 ], [ 110.357927227605856, -7.785622197608895 ], [ 110.358093846411208, -7.785635986751417 ] ] ] } },
{ "type": "Feature", "properties": { "Id": 0 }, "geometry": { "type": "MultiLineString", "coordinates": [ [ [ 110.358194826660963, -7.785798649176349 ], [ 110.358212203217832, -7.785999100837553 ], [ 110.358246676074117, -7.786211683451269 ], [ 110.358278850739978, -7.786362214923693 ], [ 110.358362375598105, -7.78685266312271 ], [ 110.358384659427074, -7.78691630863364 ] ] ] } },
{ "type": "Feature", "properties": { "Id": 0 }, "geometry": { "type": "MultiLineString", "coordinates": [ [ [ 110.35762041129928, -7.787013838524212 ], [ 110.358384659427074, -7.78691630863364 ], [ 110.35874744755013, -7.786866582710454 ] ] ] } },
{ "type": "Feature", "properties": { "Id": 0 }, "geometry": { "type": "MultiLineString", "coordinates": [ [ [ 110.358384659427088, -7.78691630863364 ], [ 110.358418458991508, -7.787157094646101 ], [ 110.35845616406759, -7.787414745999309 ], [ 110.358377611825716, -7.787857780643232 ], [ 110.358365533494151, -7.787951991718742 ] ] ] } },
{ "type": "Feature", "properties": { "Id": 0 }, "geometry": { "type": "MultiLineString", "coordinates": [ [ [ 110.357610027135166, -7.787292570143369 ], [ 110.358002823369517, -7.787384204887673 ], [ 110.358133534299938, -7.787422412698104 ], [ 110.358356748350332, -7.787474697070277 ], [ 110.358442809956628, -7.787490063185081 ] ] ] } },
{ "type": "Feature", "properties": { "Id": 0 }, "geometry": { "type": "MultiLineString", "coordinates": [ [ [ 110.358065796053722, -7.787402612287667 ], [ 110.357972329831142, -7.788054607797751 ] ] ] } },
{ "type": "Feature", "properties": { "Id": 0 }, "geometry": { "type": "MultiLineString", "coordinates": [ [ [ 110.355812872332251, -7.784877893179902 ], [ 110.355872074329028, -7.784904920178445 ], [ 110.355944789825088, -7.784902989678538 ], [ 110.356008133122387, -7.784896837710432 ] ] ] } },
{ "type": "Feature", "properties": { "Id": 0 }, "geometry": { "type": "MultiLineString", "coordinates": [ [ [ 110.356223143778791, -7.784372826144815 ], [ 110.356451198183265, -7.784523449297292 ] ] ] } },
{ "type": "Feature", "properties": { "Id": 0 }, "geometry": { "type": "MultiLineString", "coordinates": [ [ [ 110.35614572268922, -7.784525657386522 ], [ 110.356323526028319, -7.784647154478672 ] ] ] } },
{ "type": "Feature", "properties": { "Id": 0 }, "geometry": { "type": "MultiLineString", "coordinates": [ [ [ 110.35562388443627, -7.78593230809146 ], [ 110.355844082080566, -7.785999674494044 ], [ 110.355861175048389, -7.785948395590585 ], [ 110.355899307822, -7.785819182385958 ] ] ] } },
{ "type": "Feature", "properties": { "Id": 0 }, "geometry": { "type": "MultiLineString", "coordinates": [ [ [ 110.356214833061372, -7.785994981547424 ], [ 110.356086717317524, -7.78642965759573 ] ] ] } },
{ "type": "Feature", "properties": { "Id": 0 }, "geometry": { "type": "MultiLineString", "coordinates": [ [ [ 110.356086717317524, -7.78642965759573 ], [ 110.355908985487275, -7.786382799358285 ], [ 110.355820394132081, -7.786364495359285 ], [ 110.355744661336146, -7.786365593599225 ], [ 110.355696613338765, -7.786388473597972 ], [ 110.355670301340183, -7.786431945595622 ], [ 110.355670301340183, -7.786523465590657 ], [ 110.35570004533858, -7.786673329582523 ], [ 110.355711485338091, -7.786804889575399 ], [ 110.355721781337536, -7.786962761566826 ], [ 110.355726357337289, -7.78706686556118 ], [ 110.355717205337911, -7.787161817556041 ], [ 110.35570004533885, -7.787237321551942 ], [ 110.355673733340268, -7.78734600154604 ], [ 110.3556439893419, -7.787434089541271 ], [ 110.355635981342317, -7.787491289538165 ], [ 110.355635981342317, -7.787558785534499 ], [ 110.35566114934096, -7.7876159855314 ], [ 110.355706909338465, -7.787674329528233 ], [ 110.355742373336554, -7.787698353526927 ], [ 110.356132763315372, -7.787904702515738 ] ] ] } },
{ "type": "Feature", "properties": { "Id": 0 }, "geometry": { "type": "MultiLineString", "coordinates": [ [ [ 110.35608671731751, -7.78642965759573 ], [ 110.35635262580341, -7.786499727591956 ], [ 110.356611813289376, -7.786549777589237 ], [ 110.35667587728588, -7.786348433600157 ] ] ] } },
{ "type": "Feature", "properties": { "Id": 0 }, "geometry": { "type": "MultiLineString", "coordinates": [ [ [ 110.35667587728588, -7.786348433600157 ], [ 110.356861205275862, -7.786389617597925 ], [ 110.357255885254446, -7.786473129593394 ], [ 110.357412613245941, -7.786522321590735 ], [ 110.357546668461723, -7.786538123089876 ] ] ] } },
{ "type": "Feature", "properties": { "Id": 0 }, "geometry": { "type": "MultiLineString", "coordinates": [ [ [ 110.356611813289362, -7.786549777589237 ], [ 110.356825419527993, -7.786580521191101 ], [ 110.35708464192605, -7.786615084177504 ], [ 110.357252743723564, -7.786641791939736 ], [ 110.357469547911009, -7.786692065374508 ], [ 110.357546668461723, -7.786704633733199 ] ] ] } },
{ "type": "Feature", "properties": { "Id": 0 }, "geometry": { "type": "MultiLineString", "coordinates": [ [ [ 110.357092497150248, -7.786304017299849 ], [ 110.357450695373004, -7.786406135214243 ], [ 110.357546668461723, -7.786409277303914 ] ] ] } },
{ "type": "Feature", "properties": { "Id": 0 }, "geometry": { "type": "MultiLineString", "coordinates": [ [ [ 110.356729750016683, -7.786091110208592 ], [ 110.356675877285866, -7.786348433600157 ] ] ] } },
{ "type": "Feature", "properties": { "Id": 0 }, "geometry": { "type": "MultiLineString", "coordinates": [ [ [ 110.356152832248455, -7.786205340302188 ], [ 110.356370947677888, -7.786283216666243 ], [ 110.356442335955251, -7.786296287759269 ], [ 110.356469483610027, -7.786201773701898 ] ] ] } },
{ "type": "Feature", "properties": { "Id": 0 }, "geometry": { "type": "MultiLineString", "coordinates": [ [ [ 110.356092437246645, -7.785953442191252 ], [ 110.355941268210742, -7.786391310560364 ] ] ] } },
{ "type": "Feature", "properties": { "Id": 0 }, "geometry": { "type": "MultiLineString", "coordinates": [ [ [ 110.356086717317538, -7.78642965759573 ], [ 110.356028899796101, -7.786624510446547 ], [ 110.356003763078718, -7.786731341495441 ], [ 110.355973913226819, -7.786850740903027 ], [ 110.355973913226819, -7.786902585382639 ], [ 110.356016331437431, -7.786921437920679 ], [ 110.356204856817811, -7.786970140310615 ], [ 110.356548915637049, -7.787072258224997 ], [ 110.356820706393776, -7.787131957928783 ], [ 110.35723232014098, -7.787205797036111 ], [ 110.35733921403164, -7.787222324427789 ], [ 110.357444788244663, -7.787245450207786 ], [ 110.357537844802607, -7.787270615846993 ] ] ] } },
{ "type": "Feature", "properties": { "Id": 0 }, "geometry": { "type": "MultiLineString", "coordinates": [ [ [ 110.356618835425621, -7.785453886581277 ], [ 110.35686105512049, -7.785494173615062 ] ] ] } },
{ "type": "Feature", "properties": { "Id": 0 }, "geometry": { "type": "MultiLineString", "coordinates": [ [ [ 110.356625240441431, -7.785411688830364 ], [ 110.356446719798981, -7.785339926154927 ] ] ] } },
{ "type": "Feature", "properties": { "Id": 0 }, "geometry": { "type": "MultiLineString", "coordinates": [ [ [ 110.355611885582462, -7.788270670864454 ], [ 110.355719894914984, -7.788287854167363 ], [ 110.355778726616563, -7.788283093901514 ], [ 110.355890333641739, -7.78829214311977 ], [ 110.356105503942558, -7.788313257962383 ], [ 110.356311625025143, -7.788324318118018 ], [ 110.356563055040766, -7.788347946632364 ], [ 110.356743725196992, -7.788358943946228 ], [ 110.356875692963257, -7.788357372901381 ], [ 110.357012373864052, -7.788355801856549 ], [ 110.357200899244432, -7.788379367529093 ], [ 110.357357272249658, -7.78840491648866 ], [ 110.357507879476472, -7.7884158188971 ] ] ] } },
{ "type": "Feature", "properties": { "Id": 0 }, "geometry": { "type": "MultiLineString", "coordinates": [ [ [ 110.355603091344832, -7.788407490488516 ], [ 110.355611885582462, -7.788270670864454 ], [ 110.355667441341325, -7.788099254005238 ], [ 110.355720208338454, -7.787967980012362 ], [ 110.355765896835976, -7.787861159018151 ], [ 110.355799358834162, -7.787796165521683 ], [ 110.355831954098093, -7.787745703358033 ] ] ] } },
{ "type": "Feature", "properties": { "Id": 0 }, "geometry": { "type": "MultiLineString", "coordinates": [ [ [ 110.355989526885239, -7.788301877036191 ], [ 110.356072202819462, -7.788070296506807 ], [ 110.356132763315358, -7.787904702515738 ], [ 110.356185458813485, -7.787754981523927 ], [ 110.356218920811656, -7.787619846531261 ], [ 110.356276433621048, -7.787361079107807 ], [ 110.356327712524518, -7.787182105680006 ], [ 110.356376778894898, -7.787021167411131 ] ] ] } },
{ "type": "Feature", "properties": { "Id": 0 }, "geometry": { "type": "MultiLineString", "coordinates": [ [ [ 110.356448108309209, -7.788337144340169 ], [ 110.356577068761439, -7.787934196264241 ], [ 110.356619298446631, -7.787772315804268 ], [ 110.356717017435443, -7.787447737941013 ], [ 110.356770432959877, -7.787248215246757 ], [ 110.356804719985504, -7.787128446463373 ] ] ] } },
{ "type": "Feature", "properties": { "Id": 0 }, "geometry": { "type": "MultiLineString", "coordinates": [ [ [ 110.356132763315358, -7.787904702515738 ], [ 110.356365920335364, -7.787992513448565 ], [ 110.356418204707509, -7.788018655634657 ], [ 110.356533844458141, -7.788069254334673 ] ] ] } },
{ "type": "Feature", "properties": { "Id": 0 }, "geometry": { "type": "MultiLineString", "coordinates": [ [ [ 110.357094985816119, -7.787181160725924 ], [ 110.356955816250675, -7.787749378549655 ], [ 110.357105065510154, -7.787788654670569 ], [ 110.357314014473431, -7.787829501836334 ], [ 110.357527125339445, -7.787848402441602 ] ] ] } },
{ "type": "Feature", "properties": { "Id": 0 }, "geometry": { "type": "MultiLineString", "coordinates": [ [ [ 110.356760929441094, -7.788358739133792 ], [ 110.356808138036115, -7.788145281848506 ], [ 110.356834468747579, -7.788033737665107 ], [ 110.356871671089309, -7.787911070484251 ], [ 110.356909878899728, -7.787810523614708 ], [ 110.356936021085815, -7.787781365022536 ], [ 110.356955816250675, -7.787749378549655 ] ] ] } },
{ "type": "Feature", "properties": { "Id": 0 }, "geometry": { "type": "MultiLineString", "coordinates": [ [ [ 110.356395682208884, -7.788007394385345 ], [ 110.356497636734645, -7.787710982213866 ] ] ] } },
{ "type": "Feature", "properties": { "Id": 0 }, "geometry": { "type": "MultiLineString", "coordinates": [ [ [ 110.355679749445997, -7.7873211524137 ], [ 110.355832519192631, -7.787366043609523 ], [ 110.355989623676308, -7.787411603909796 ], [ 110.356251013696777, -7.787475450990822 ] ] ] } },
{ "type": "Feature", "properties": { "Id": 0 }, "geometry": { "type": "MultiLineString", "coordinates": [ [ [ 110.355679749445997, -7.7873211524137 ], [ 110.35543385085488, -7.787255504894816 ], [ 110.35545597116618, -7.787179089273961 ], [ 110.355483118820956, -7.787128815839189 ], [ 110.35551428835052, -7.787090608028766 ], [ 110.355546463348773, -7.787005143189647 ], [ 110.355560539910513, -7.786952858817482 ], [ 110.35572219399215, -7.786972149459094 ] ] ] } },
{ "type": "Feature", "properties": { "Id": 0 }, "geometry": { "type": "MultiLineString", "coordinates": [ [ [ 110.355701154802446, -7.788015381492166 ], [ 110.355541436005282, -7.787969387668589 ], [ 110.355513282881816, -7.787958327512944 ], [ 110.355510266475719, -7.787872862673827 ], [ 110.355507250069621, -7.787771310335596 ], [ 110.355499206320076, -7.787732097056478 ], [ 110.355486135227025, -7.787692883777344 ], [ 110.355486135227025, -7.787613451750407 ], [ 110.355495184445303, -7.787564183784322 ], [ 110.355487140695743, -7.7875239650365 ], [ 110.355503228194877, -7.78743146191652 ], [ 110.355519315693996, -7.787333931453059 ], [ 110.355535412224086, -7.787282618721994 ] ] ] } },
{ "type": "Feature", "properties": { "Id": 0 }, "geometry": { "type": "MultiLineString", "coordinates": [ [ [ 110.355670301340183, -7.786431945595622 ], [ 110.355675426461872, -7.786346923520358 ], [ 110.355712766619845, -7.786223920647044 ], [ 110.355742053018247, -7.786120686092638 ] ] ] } },
{ "type": "Feature", "properties": { "Id": 0 }, "geometry": { "type": "MultiLineString", "coordinates": [ [ [ 110.355670301340183, -7.786431945595622 ], [ 110.355481541352333, -7.786375889598784 ], [ 110.35552158135016, -7.786054425616235 ] ] ] } },
{ "type": "Feature", "properties": { "Id": 0 }, "geometry": { "type": "MultiLineString", "coordinates": [ [ [ 110.356864962920753, -7.787139897076742 ], [ 110.356906965275002, -7.786935305568449 ] ] ] } },
{ "type": "Feature", "properties": { "Id": 0 }, "geometry": { "type": "MultiLineString", "coordinates": [ [ [ 110.356976463271238, -7.7855094526458 ], [ 110.357364350750203, -7.785572015142396 ], [ 110.357533412292938, -7.785573683634515 ] ] ] } },
{ "type": "Feature", "properties": { "Id": 0 }, "geometry": { "type": "MultiLineString", "coordinates": [ [ [ 110.35754208948552, -7.78590992485001 ], [ 110.357330388252052, -7.785829415128436 ], [ 110.357326813252243, -7.785734677633575 ], [ 110.357364350750203, -7.785572015142396 ] ] ] } },
{ "type": "Feature", "properties": { "Id": 0 }, "geometry": { "type": "MultiLineString", "coordinates": [ [ [ 110.357273188255178, -7.785150165165295 ], [ 110.357535410204747, -7.785169773507937 ] ] ] } },
{ "type": "Feature", "properties": { "Id": 0 }, "geometry": { "type": "MultiLineString", "coordinates": [ [ [ 110.361716222574586, -7.78287254904383 ], [ 110.361693563796578, -7.783447683226398 ] ] ] } },
{ "type": "Feature", "properties": { "Id": 0 }, "geometry": { "type": "MultiLineString", "coordinates": [ [ [ 110.361967871510018, -7.784189203978464 ], [ 110.361981520199791, -7.783871490694665 ] ] ] } },
{ "type": "Feature", "properties": { "Id": 0 }, "geometry": { "type": "MultiLineString", "coordinates": [ [ [ 110.361326907123058, -7.782866094881657 ], [ 110.361314725535962, -7.783328702764098 ] ] ] } },
{ "type": "Feature", "properties": { "Id": 0 }, "geometry": { "type": "MultiLineString", "coordinates": [ [ [ 110.362183092988829, -7.78442765770449 ], [ 110.362188812988521, -7.784539769698403 ], [ 110.362290628983004, -7.784539769698398 ], [ 110.362279300813938, -7.784860184857499 ] ] ] } },
{ "type": "Feature", "properties": { "Id": 0 }, "geometry": { "type": "MultiLineString", "coordinates": [ [ [ 110.362485108972464, -7.784529473698961 ], [ 110.362490836305881, -7.784205525809522 ] ] ] } },
{ "type": "Feature", "properties": { "Id": 0 }, "geometry": { "type": "MultiLineString", "coordinates": [ [ [ 110.362097494845841, -7.785628226310274 ], [ 110.362146484991115, -7.785377177653 ], [ 110.362144196991224, -7.785291377657654 ] ] ] } },
{ "type": "Feature", "properties": { "Id": 0 }, "geometry": { "type": "MultiLineString", "coordinates": [ [ [ 110.360474480842058, -7.782768218249585 ], [ 110.360481750581442, -7.782524327807764 ] ] ] } },
{ "type": "Feature", "properties": { "Id": 0 }, "geometry": { "type": "MultiLineString", "coordinates": [ [ [ 110.359389852075822, -7.781714508413185 ], [ 110.359353710361546, -7.782055363254271 ] ] ] } },
{ "type": "Feature", "properties": { "Id": 0 }, "geometry": { "type": "MultiLineString", "coordinates": [ [ [ 110.359249830154468, -7.782867071601221 ], [ 110.359225344705393, -7.783450173313105 ] ] ] } }
]
}
