{
"type": "FeatureCollection",
"name": "TitikPenumpukanSampah30Juni2026_4326",
"crs": { "type": "name", "properties": { "name": "urn:ogc:def:crs:OGC:1.3:CRS84" } },
"features": [
{ "type": "Feature", "properties": { "Name": "sampah 1", "FolderPath": "SurveyPenumpukanSampah30Juni2026", "SymbolID": 0, "AltMode": -1, "Base": 0.0, "Snippet": null, "PopupInfo": null, "HasLabel": -1, "LabelID": 0 }, "geometry": { "type": "Point", "coordinates": [ 110.361994, -7.785618, 0.0 ] } },
{ "type": "Feature", "properties": { "Name": "sampah 2", "FolderPath": "SurveyPenumpukanSampah30Juni2026", "SymbolID": 0, "AltMode": -1, "Base": 0.0, "Snippet": null, "PopupInfo": null, "HasLabel": -1, "LabelID": 0 }, "geometry": { "type": "Point", "coordinates": [ 110.363133, -7.784609, 0.0 ] } },
{ "type": "Feature", "properties": { "Name": "sampah 3", "FolderPath": "SurveyPenumpukanSampah30Juni2026", "SymbolID": 0, "AltMode": -1, "Base": 0.0, "Snippet": null, "PopupInfo": null, "HasLabel": -1, "LabelID": 0 }, "geometry": { "type": "Point", "coordinates": [ 110.363194534470068, -7.784227831596011, 0.0 ] } },
{ "type": "Feature", "properties": { "Name": "sampah 4", "FolderPath": "SurveyPenumpukanSampah30Juni2026", "SymbolID": 0, "AltMode": -1, "Base": 0.0, "Snippet": null, "PopupInfo": null, "HasLabel": -1, "LabelID": 0 }, "geometry": { "type": "Point", "coordinates": [ 110.362599, -7.784193, 0.0 ] } },
{ "type": "Feature", "properties": { "Name": "sampah 5", "FolderPath": "SurveyPenumpukanSampah30Juni2026", "SymbolID": 0, "AltMode": -1, "Base": 0.0, "Snippet": null, "PopupInfo": null, "HasLabel": -1, "LabelID": 0 }, "geometry": { "type": "Point", "coordinates": [ 110.36118, -7.78415, 0.0 ] } },
{ "type": "Feature", "properties": { "Name": "sampah 6", "FolderPath": "SurveyPenumpukanSampah30Juni2026", "SymbolID": 0, "AltMode": -1, "Base": 0.0, "Snippet": null, "PopupInfo": null, "HasLabel": -1, "LabelID": 0 }, "geometry": { "type": "Point", "coordinates": [ 110.360857, -7.78539, 0.0 ] } },
{ "type": "Feature", "properties": { "Name": "sampah 7", "FolderPath": "SurveyPenumpukanSampah30Juni2026", "SymbolID": 0, "AltMode": -1, "Base": 0.0, "Snippet": null, "PopupInfo": null, "HasLabel": -1, "LabelID": 0 }, "geometry": { "type": "Point", "coordinates": [ 110.36163, -7.785639, 0.0 ] } },
{ "type": "Feature", "properties": { "Name": "sampah 8", "FolderPath": "SurveyPenumpukanSampah30Juni2026", "SymbolID": 0, "AltMode": -1, "Base": 0.0, "Snippet": null, "PopupInfo": null, "HasLabel": -1, "LabelID": 0 }, "geometry": { "type": "Point", "coordinates": [ 110.361518, -7.784767, 0.0 ] } },
{ "type": "Feature", "properties": { "Name": "sampah 9", "FolderPath": "SurveyPenumpukanSampah30Juni2026", "SymbolID": 0, "AltMode": -1, "Base": 0.0, "Snippet": null, "PopupInfo": null, "HasLabel": -1, "LabelID": 0 }, "geometry": { "type": "Point", "coordinates": [ 110.361627, -7.784406, 0.0 ] } },
{ "type": "Feature", "properties": { "Name": "sampah 10", "FolderPath": "SurveyPenumpukanSampah30Juni2026", "SymbolID": 0, "AltMode": -1, "Base": 0.0, "Snippet": null, "PopupInfo": null, "HasLabel": -1, "LabelID": 0 }, "geometry": { "type": "Point", "coordinates": [ 110.360075310335631, -7.787790538492362, 0.0 ] } },
{ "type": "Feature", "properties": { "Name": "sampah 11", "FolderPath": "SurveyPenumpukanSampah30Juni2026", "SymbolID": 0, "AltMode": -1, "Base": 0.0, "Snippet": null, "PopupInfo": null, "HasLabel": -1, "LabelID": 0 }, "geometry": { "type": "Point", "coordinates": [ 110.358755, -7.787035, 0.0 ] } },
{ "type": "Feature", "properties": { "Name": "sampah 12", "FolderPath": "SurveyPenumpukanSampah30Juni2026", "SymbolID": 0, "AltMode": -1, "Base": 0.0, "Snippet": null, "PopupInfo": null, "HasLabel": -1, "LabelID": 0 }, "geometry": { "type": "Point", "coordinates": [ 110.358732, -7.786934, 0.0 ] } },
{ "type": "Feature", "properties": { "Name": "sampah 13", "FolderPath": "SurveyPenumpukanSampah30Juni2026", "SymbolID": 0, "AltMode": -1, "Base": 0.0, "Snippet": null, "PopupInfo": null, "HasLabel": -1, "LabelID": 0 }, "geometry": { "type": "Point", "coordinates": [ 110.358607, -7.785478, 0.0 ] } },
{ "type": "Feature", "properties": { "Name": "sampah 14", "FolderPath": "SurveyPenumpukanSampah30Juni2026", "SymbolID": 0, "AltMode": -1, "Base": 0.0, "Snippet": null, "PopupInfo": null, "HasLabel": -1, "LabelID": 0 }, "geometry": { "type": "Point", "coordinates": [ 110.358699, -7.78538, 0.0 ] } },
{ "type": "Feature", "properties": { "Name": "sampah 15", "FolderPath": "SurveyPenumpukanSampah30Juni2026", "SymbolID": 0, "AltMode": -1, "Base": 0.0, "Snippet": null, "PopupInfo": null, "HasLabel": -1, "LabelID": 0 }, "geometry": { "type": "Point", "coordinates": [ 110.358698, -7.785092, 0.0 ] } },
{ "type": "Feature", "properties": { "Name": "sampah 16", "FolderPath": "SurveyPenumpukanSampah30Juni2026", "SymbolID": 0, "AltMode": -1, "Base": 0.0, "Snippet": null, "PopupInfo": null, "HasLabel": -1, "LabelID": 0 }, "geometry": { "type": "Point", "coordinates": [ 110.35871, -7.784, 0.0 ] } },
{ "type": "Feature", "properties": { "Name": "sampah 17", "FolderPath": "SurveyPenumpukanSampah30Juni2026", "SymbolID": 0, "AltMode": -1, "Base": 0.0, "Snippet": null, "PopupInfo": null, "HasLabel": -1, "LabelID": 0 }, "geometry": { "type": "Point", "coordinates": [ 110.358935, -7.783993, 0.0 ] } },
{ "type": "Feature", "properties": { "Name": "sampah 18", "FolderPath": "SurveyPenumpukanSampah30Juni2026", "SymbolID": 0, "AltMode": -1, "Base": 0.0, "Snippet": null, "PopupInfo": null, "HasLabel": -1, "LabelID": 0 }, "geometry": { "type": "Point", "coordinates": [ 110.359517, -7.784, 0.0 ] } },
{ "type": "Feature", "properties": { "Name": "sampah 19", "FolderPath": "SurveyPenumpukanSampah30Juni2026", "SymbolID": 0, "AltMode": -1, "Base": 0.0, "Snippet": null, "PopupInfo": null, "HasLabel": -1, "LabelID": 0 }, "geometry": { "type": "Point", "coordinates": [ 110.359663, -7.783898, 0.0 ] } },
{ "type": "Feature", "properties": { "Name": "sampah 20", "FolderPath": "SurveyPenumpukanSampah30Juni2026", "SymbolID": 0, "AltMode": -1, "Base": 0.0, "Snippet": null, "PopupInfo": null, "HasLabel": -1, "LabelID": 0 }, "geometry": { "type": "Point", "coordinates": [ 110.359947, -7.784208, 0.0 ] } },
{ "type": "Feature", "properties": { "Name": "sampah 21", "FolderPath": "SurveyPenumpukanSampah30Juni2026", "SymbolID": 0, "AltMode": -1, "Base": 0.0, "Snippet": null, "PopupInfo": null, "HasLabel": -1, "LabelID": 0 }, "geometry": { "type": "Point", "coordinates": [ 110.360735, -7.781503, 0.0 ] } },
{ "type": "Feature", "properties": { "Name": "sampah 22", "FolderPath": "SurveyPenumpukanSampah30Juni2026", "SymbolID": 0, "AltMode": -1, "Base": 0.0, "Snippet": null, "PopupInfo": null, "HasLabel": -1, "LabelID": 0 }, "geometry": { "type": "Point", "coordinates": [ 110.358743, -7.780901, 0.0 ] } },
{ "type": "Feature", "properties": { "Name": "sampah 23", "FolderPath": "SurveyPenumpukanSampah30Juni2026", "SymbolID": 0, "AltMode": -1, "Base": 0.0, "Snippet": null, "PopupInfo": null, "HasLabel": -1, "LabelID": 0 }, "geometry": { "type": "Point", "coordinates": [ 110.358667, -7.782713, 0.0 ] } },
{ "type": "Feature", "properties": { "Name": "sampah 24", "FolderPath": "SurveyPenumpukanSampah30Juni2026", "SymbolID": 0, "AltMode": -1, "Base": 0.0, "Snippet": null, "PopupInfo": null, "HasLabel": -1, "LabelID": 0 }, "geometry": { "type": "Point", "coordinates": [ 110.357624, -7.784903, 0.0 ] } },
{ "type": "Feature", "properties": { "Name": "sampah 25", "FolderPath": "SurveyPenumpukanSampah30Juni2026", "SymbolID": 0, "AltMode": -1, "Base": 0.0, "Snippet": null, "PopupInfo": null, "HasLabel": -1, "LabelID": 0 }, "geometry": { "type": "Point", "coordinates": [ 110.358161, -7.785324, 0.0 ] } },
{ "type": "Feature", "properties": { "Name": "sampah 26", "FolderPath": "SurveyPenumpukanSampah30Juni2026", "SymbolID": 0, "AltMode": -1, "Base": 0.0, "Snippet": null, "PopupInfo": null, "HasLabel": -1, "LabelID": 0 }, "geometry": { "type": "Point", "coordinates": [ 110.358307, -7.785458, 0.0 ] } },
{ "type": "Feature", "properties": { "Name": "sampah 27", "FolderPath": "SurveyPenumpukanSampah30Juni2026", "SymbolID": 0, "AltMode": -1, "Base": 0.0, "Snippet": null, "PopupInfo": null, "HasLabel": -1, "LabelID": 0 }, "geometry": { "type": "Point", "coordinates": [ 110.358263, -7.785599, 0.0 ] } },
{ "type": "Feature", "properties": { "Name": "sampah 28", "FolderPath": "SurveyPenumpukanSampah30Juni2026", "SymbolID": 0, "AltMode": -1, "Base": 0.0, "Snippet": null, "PopupInfo": null, "HasLabel": -1, "LabelID": 0 }, "geometry": { "type": "Point", "coordinates": [ 110.358398, -7.786861, 0.0 ] } },
{ "type": "Feature", "properties": { "Name": "sampah 29", "FolderPath": "SurveyPenumpukanSampah30Juni2026", "SymbolID": 0, "AltMode": -1, "Base": 0.0, "Snippet": null, "PopupInfo": null, "HasLabel": -1, "LabelID": 0 }, "geometry": { "type": "Point", "coordinates": [ 110.356457, -7.785684, 0.0 ] } },
{ "type": "Feature", "properties": { "Name": "sampah 30", "FolderPath": "SurveyPenumpukanSampah30Juni2026", "SymbolID": 0, "AltMode": -1, "Base": 0.0, "Snippet": null, "PopupInfo": null, "HasLabel": -1, "LabelID": 0 }, "geometry": { "type": "Point", "coordinates": [ 110.356887, -7.786033, 0.0 ] } },
{ "type": "Feature", "properties": { "Name": "sampah 31", "FolderPath": "SurveyPenumpukanSampah30Juni2026", "SymbolID": 0, "AltMode": -1, "Base": 0.0, "Snippet": null, "PopupInfo": null, "HasLabel": -1, "LabelID": 0 }, "geometry": { "type": "Point", "coordinates": [ 110.357015, -7.786219, 0.0 ] } },
{ "type": "Feature", "properties": { "Name": "sampah 32", "FolderPath": "SurveyPenumpukanSampah30Juni2026", "SymbolID": 0, "AltMode": -1, "Base": 0.0, "Snippet": null, "PopupInfo": null, "HasLabel": -1, "LabelID": 0 }, "geometry": { "type": "Point", "coordinates": [ 110.357374, -7.786504, 0.0 ] } },
{ "type": "Feature", "properties": { "Name": "sampah 33", "FolderPath": "SurveyPenumpukanSampah30Juni2026", "SymbolID": 0, "AltMode": -1, "Base": 0.0, "Snippet": null, "PopupInfo": null, "HasLabel": -1, "LabelID": 0 }, "geometry": { "type": "Point", "coordinates": [ 110.356607, -7.786784, 0.0 ] } },
{ "type": "Feature", "properties": { "Name": "sampah 34", "FolderPath": "SurveyPenumpukanSampah30Juni2026", "SymbolID": 0, "AltMode": -1, "Base": 0.0, "Snippet": null, "PopupInfo": null, "HasLabel": -1, "LabelID": 0 }, "geometry": { "type": "Point", "coordinates": [ 110.3564, -7.786267, 0.0 ] } },
{ "type": "Feature", "properties": { "Name": "sampah 35", "FolderPath": "SurveyPenumpukanSampah30Juni2026", "SymbolID": 0, "AltMode": -1, "Base": 0.0, "Snippet": null, "PopupInfo": null, "HasLabel": -1, "LabelID": 0 }, "geometry": { "type": "Point", "coordinates": [ 110.355463, -7.78735, 0.0 ] } },
{ "type": "Feature", "properties": { "Name": "sampah 36", "FolderPath": "SurveyPenumpukanSampah30Juni2026", "SymbolID": 0, "AltMode": -1, "Base": 0.0, "Snippet": null, "PopupInfo": null, "HasLabel": -1, "LabelID": 0 }, "geometry": { "type": "Point", "coordinates": [ 110.355526, -7.787548, 0.0 ] } },
{ "type": "Feature", "properties": { "Name": "sampah 37", "FolderPath": "SurveyPenumpukanSampah30Juni2026", "SymbolID": 0, "AltMode": -1, "Base": 0.0, "Snippet": null, "PopupInfo": null, "HasLabel": -1, "LabelID": 0 }, "geometry": { "type": "Point", "coordinates": [ 110.35743, -7.78784, 0.0 ] } },
{ "type": "Feature", "properties": { "Name": "sampah 38", "FolderPath": "SurveyPenumpukanSampah30Juni2026", "SymbolID": 0, "AltMode": -1, "Base": 0.0, "Snippet": null, "PopupInfo": null, "HasLabel": -1, "LabelID": 0 }, "geometry": { "type": "Point", "coordinates": [ 110.357322, -7.787891, 0.0 ] } },
{ "type": "Feature", "properties": { "Name": "sampah 39", "FolderPath": "SurveyPenumpukanSampah30Juni2026", "SymbolID": 0, "AltMode": -1, "Base": 0.0, "Snippet": null, "PopupInfo": null, "HasLabel": -1, "LabelID": 0 }, "geometry": { "type": "Point", "coordinates": [ 110.35613, -7.787832, 0.0 ] } }
]
}
