{
"type": "FeatureCollection",
"name": "UMKMBarangJasa_4326",
"crs": { "type": "name", "properties": { "name": "urn:ogc:def:crs:OGC:1.3:CRS84" } },
"features": [
{ "type": "Feature", "properties": { "Id": 0, "UMKM": "House of Family Laundry", "Jenis": "Laundry", "Kontak": "087739003728", "Alamat": "Jl. Tentara Pelajar No.30 001, Bumijo, Kec. Jetis, Kota Yogyakarta, Daerah Istimewa Yogyakarta 55231", "Jam": "07.00–18.00", "Kategori": "Jasa" }, "geometry": { "type": "Point", "coordinates": [ 110.360876191666804, -7.784130781931466 ] } },
{ "type": "Feature", "properties": { "Id": 0, "UMKM": "Fotokopi Putri Jaya", "Jenis": "Fotocopy", "Kontak": "082221377000", "Alamat": "Jl. Tentara Rakyat Mataram No.32A, Bumijo, Kec. Jetis, Kota Yogyakarta, Daerah Istimewa Yogyakarta 55231", "Jam": "06.30–22.10", "Kategori": "Barang" }, "geometry": { "type": "Point", "coordinates": [ 110.357655377283422, -7.785513580675445 ] } },
{ "type": "Feature", "properties": { "Id": 0, "UMKM": "Delta Print", "Jenis": "Servis Elektronik", "Kontak": "088216069036", "Alamat": "Jl. Tentara Pelajar No.6, Bumijo, Kec. Jetis, Kota Yogyakarta, Daerah Istimewa Yogyakarta 55231", "Jam": "09.00–21.00", "Kategori": "Barang" }, "geometry": { "type": "Point", "coordinates": [ 110.359916838499231, -7.787145100628485 ] } },
{ "type": "Feature", "properties": { "Id": 0, "UMKM": "Putrama Packaging (Kemasan Jogja)", "Jenis": "Packaging", "Kontak": "081295646427", "Alamat": "Jl. Kyai Mojo No.60, Bumijo, Kec. Jetis, Kota Yogyakarta, Daerah Istimewa Yogyakarta 55231", "Jam": "09.00–16.50", "Kategori": "Barang" }, "geometry": { "type": "Point", "coordinates": [ 110.357545721789677, -7.782619642402475 ] } },
{ "type": "Feature", "properties": { "Id": 0, "UMKM": "Penjahit Pakaian Esti", "Jenis": "Penjahit", "Kontak": "085640229135", "Alamat": "Jl. Bumijo Kidul No.1147, Bumijo, Kec. Jetis, Kota Yogyakarta, Daerah Istimewa Yogyakarta 55231", "Jam": "07.00–22.00", "Kategori": "Jasa" }, "geometry": { "type": "Point", "coordinates": [ 110.359997834596555, -7.787337024008631 ] } },
{ "type": "Feature", "properties": { "Id": 0, "UMKM": "Dab Hobbies", "Jenis": "Toko Sepatu", "Kontak": "0274560524", "Alamat": "Jl. Bumijo Tengah No.21 A, Bumijo, Kec. Jetis, Kota Yogyakarta, Daerah Istimewa Yogyakarta 55231", "Jam": "09.00–21.00", "Kategori": "Barang" }, "geometry": { "type": "Point", "coordinates": [ 110.360888488360757, -7.787022709831947 ] } },
{ "type": "Feature", "properties": { "Id": 0, "UMKM": "SAHABAT Reparasi Tas & Koper", "Jenis": "Reparasi Tas & Koper", "Kontak": "08895674168", "Alamat": "Jl. Tentara Pelajar No.23, Bumijo, Kec. Jetis, Kota Yogyakarta, Daerah Istimewa Yogyakarta 55231", "Jam": "Buka 24 jam", "Kategori": "Jasa" }, "geometry": { "type": "Point", "coordinates": [ 110.360680338701044, -7.784044740557726 ] } },
{ "type": "Feature", "properties": { "Id": 0, "UMKM": "Dokter Koper Jogja - Spesialis Bedah Koper Sultan dan Tas Branded", "Jenis": "Reparasi Tas & Koper", "Kontak": null, "Alamat": "d/h Kos Bu Tur ( online Workshop), 50 mtr Utara Samsat Kota Jogja, Jl. Tentara Zeni Pelajar No.1124B, RT.37/RW.08, Bumijo, Kec. Jetis, Kota Yogyakarta, Daerah Istimewa Yogyakarta 55231", "Jam": "09.00–23.00", "Kategori": "Jasa" }, "geometry": { "type": "Point", "coordinates": [ 110.358904257220559, -7.787256004923528 ] } },
{ "type": "Feature", "properties": { "Id": 0, "UMKM": "Extalia Toys", "Jenis": "Anime Enthusiast", "Kontak": "087838780075", "Alamat": "Jl. Sindunegaran No.10, Bumijo, Kec. Jetis, Kota Yogyakarta, Daerah Istimewa Yogyakarta 55231", "Jam": "10.00–18.00", "Kategori": "Barang" }, "geometry": { "type": "Point", "coordinates": [ 110.360740010327291, -7.786240771850445 ] } },
{ "type": "Feature", "properties": { "Id": 0, "UMKM": "Ecoprint & Rajut jogja Geulis_Bmj", "Jenis": "Eco-Craft", "Kontak": "08175495139", "Alamat": "Bumijo Lor JTI/1204 C, Bumijo, Kec. Jetis, Kota Yogyakarta, Daerah Istimewa Yogyakarta 55231", "Jam": null, "Kategori": "Barang" }, "geometry": { "type": "Point", "coordinates": [ 110.361359686664173, -7.784615063357049 ] } },
{ "type": "Feature", "properties": { "Id": 0, "UMKM": "Galery Gan's ART", "Jenis": "Art Tailor", "Kontak": "081225711562", "Alamat": "Badran Gg.Kanthil , jt/1 754, rt 45/10, Kelurahan, Bumijo, Kec. Jetis, Kota Yogyakarta, Daerah Istimewa Yogyakarta 55231", "Jam": "Buka 24 jam", "Kategori": "Barang" }, "geometry": { "type": "Point", "coordinates": [ 110.356906553698181, -7.786751589104428 ] } },
{ "type": "Feature", "properties": { "Id": 0, "UMKM": "Bleemo Batik and Craft", "Jenis": "Batik & Craft", "Kontak": "087738343222", "Alamat": "Badran Jt I / 1006 RT 55 RW 12 Yogyakarta, Bumijo, Kec. Jetis, Kota Yogyakarta, Daerah Istimewa Yogyakarta 55231", "Jam": null, "Kategori": "Barang" }, "geometry": { "type": "Point", "coordinates": [ 110.358488441416938, -7.786011355805887 ] } },
{ "type": "Feature", "properties": { "Id": 0, "UMKM": "AW.Canary Jogja", "Jenis": "Toko Hewan Peliharaan", "Kontak": null, "Alamat": "Bumijo, Jetis, Yogyakarta City, Special Region of Yogyakarta 55231", "Jam": "Buka 24 jam", "Kategori": "Barang" }, "geometry": { "type": "Point", "coordinates": [ 110.357560672186651, -7.783016604951029 ] } },
{ "type": "Feature", "properties": { "Id": 0, "UMKM": "Woody Motor", "Jenis": "Bengkel Sepeda Motor", "Kontak": "0274548807", "Alamat": "Jl. Tentara Rakyat Mataram, Bumijo, Kec. Jetis, Kota Yogyakarta, Daerah Istimewa Yogyakarta 55231", "Jam": "08.00–17.00", "Kategori": "Jasa" }, "geometry": { "type": "Point", "coordinates": [ 110.35765938108311, -7.78324822471748 ] } },
{ "type": "Feature", "properties": { "Id": 0, "UMKM": "Palu Ajaib (Custom Plat dan Akrilik)", "Jenis": "Klub Kendaraan Bermotor", "Kontak": "081219196424", "Alamat": "Jl. Bumijo Tengah, Bumijo, Kec. Jetis, Kota Yogyakarta, Daerah Istimewa Yogyakarta 55231", "Jam": "10.00–20.00", "Kategori": "Barang" }, "geometry": { "type": "Point", "coordinates": [ 110.360415834132752, -7.786910942574482 ] } },
{ "type": "Feature", "properties": { "Id": 0, "UMKM": "Omah Ijo Jogja", "Jenis": "Toko Hewan Peliharaan", "Kontak": "0817273611", "Alamat": "Bumijo, Jetis, Yogyakarta City, Special Region of Yogyakarta 55231", "Jam": "10.00–17.00", "Kategori": "Barang" }, "geometry": { "type": "Point", "coordinates": [ 110.358811315971266, -7.783301283950678 ] } },
{ "type": "Feature", "properties": { "Id": 0, "UMKM": "Pak AGUNG \"Service arloji & clock\"", "Jenis": "Reparasi Jam & Arloji", "Kontak": "08386828781", "Alamat": "Pasar pingit, Jl. Kyai Mojo, Bumijo, Kec. Jetis, Kota Yogyakarta, Daerah Istimewa Yogyakarta 55241", "Jam": "08.00–13.00", "Kategori": "Jasa" }, "geometry": { "type": "Point", "coordinates": [ 110.358836148674968, -7.782981605485609 ] } },
{ "type": "Feature", "properties": { "Id": 0, "UMKM": "Idola Sport", "Jenis": "Toko Perlengkapan Olahraga", "Kontak": "081904283345", "Alamat": "Jl. Kyai Mojo No.73, Bumijo, Kec. Jetis, Kota Yogyakarta, Daerah Istimewa Yogyakarta 55231", "Jam": "10.00–18.00", "Kategori": "Barang" }, "geometry": { "type": "Point", "coordinates": [ 110.358274802447156, -7.782900829288665 ] } },
{ "type": "Feature", "properties": { "Id": 0, "UMKM": "Toko Mutiara Electric & Specialist Antena tv", "Jenis": "Toko Elektronik", "Kontak": "0274525091", "Alamat": "Daerah Istimewa, Jl. Tentara Rakyat Mataram No.65, Bumijo, Jetis, Yogyakarta City, Special Region of Yogyakarta 55231", "Jam": "08.30–21.00", "Kategori": "Barang" }, "geometry": { "type": "Point", "coordinates": [ 110.357829219106748, -7.782996299645333 ] } },
{ "type": "Feature", "properties": { "Id": 0, "UMKM": "Toko Sepeda Alam Baru Jogja", "Jenis": "Toko Sepeda", "Kontak": "0811252589", "Alamat": "Jl. Kyai Mojo No.18A, Bumijo, Kec. Jetis, Kota Yogyakarta, Daerah Istimewa Yogyakarta 55231", "Jam": "10.00–17.30", "Kategori": "Barang" }, "geometry": { "type": "Point", "coordinates": [ 110.359477601145315, -7.782715054490467 ] } },
{ "type": "Feature", "properties": { "Id": 0, "UMKM": "Service Kamera Pak Rahmin", "Jenis": "Toko Reparasi Kamera", "Kontak": "081328071533", "Alamat": "Bumijo, Jetis, Yogyakarta City, Special Region of Yogyakarta 55231", "Jam": "09.00–18.00", "Kategori": "Jasa" }, "geometry": { "type": "Point", "coordinates": [ 110.359276522653943, -7.780868478165844 ] } },
{ "type": "Feature", "properties": { "Id": 0, "UMKM": "Dexa Fish Store", "Jenis": "Toko Ikan Hias", "Kontak": "08975000606", "Alamat": "Gg. Kantil, Bumijo, Kec. Jetis, Kota Yogyakarta, Daerah Istimewa Yogyakarta 55231", "Jam": "Buka 24 jam", "Kategori": "Barang" }, "geometry": { "type": "Point", "coordinates": [ 110.355372688184474, -7.7872980799606 ] } },
{ "type": "Feature", "properties": { "Id": 0, "UMKM": "Escalera", "Jenis": "Reparasi Sepatu", "Kontak": "0895421891855", "Alamat": "Badran jt 1/571, Bumijo, Kec. Jetis, Kota Yogyakarta, Daerah Istimewa Yogyakarta 55231", "Jam": "13.00–21.00", "Kategori": "Jasa" }, "geometry": { "type": "Point", "coordinates": [ 110.356789644173716, -7.785560606938724 ] } },
{ "type": "Feature", "properties": { "Id": 0, "UMKM": "Gazi House Shoes and Clothing Warehouse Center", "Jenis": "Pabrik Sepatu", "Kontak": null, "Alamat": "Gang Melati Badran 569, Bumijo, Kec. Jetis, Kota Yogyakarta, Daerah Istimewa Yogyakarta 55231", "Jam": "00.00–07.00,10.00–00.00", "Kategori": "Barang" }, "geometry": { "type": "Point", "coordinates": [ 110.355811753807885, -7.785793971135591 ] } },
{ "type": "Feature", "properties": { "Id": 0, "UMKM": "ERBE Laundry Yogyakarta", "Jenis": "Laundry", "Kontak": "081296148321", "Alamat": "Jl. Tentara Rakyat Mataram Gg. Nusa Indah No.14, Bumijo, Kec. Jetis, Kota Yogyakarta, Daerah Istimewa Yogyakarta 55231", "Jam": "10.00–18.00", "Kategori": "Jasa" }, "geometry": { "type": "Point", "coordinates": [ 110.35773127544357, -7.786756363090505 ] } },
{ "type": "Feature", "properties": { "Id": 0, "UMKM": "Raajaa LAUNDRY", "Jenis": "Laundry", "Kontak": "088215096313", "Alamat": "Jl. Tentara Rakyat Mataram No.58, Bumijo, Kec. Jetis, Kota Yogyakarta, Daerah Istimewa Yogyakarta 55231", "Jam": "10.00–22.00", "Kategori": "Jasa" }, "geometry": { "type": "Point", "coordinates": [ 110.357978945268258, -7.78314198457358 ] } },
{ "type": "Feature", "properties": { "Id": 0, "UMKM": "RITZ Hair Studio & Beauty Bar", "Jenis": "Salon", "Kontak": "081312868080", "Alamat": "Jl. Tentara Pelajar No.4B, Bumijo, Kec. Jetis, Kota Yogyakarta, Daerah Istimewa Yogyakarta 55231", "Jam": "10.00–20.00", "Kategori": "Jasa" }, "geometry": { "type": "Point", "coordinates": [ 110.359879896972231, -7.787203597567204 ] } },
{ "type": "Feature", "properties": { "Id": 0, "UMKM": "588 PLAYSTATION", "Jenis": "Hiburan & Game", "Kontak": "081226034400", "Alamat": "Gg. Melati No.713, Bumijo, Kec. Jetis, Kota Yogyakarta, Daerah Istimewa Yogyakarta 55231", "Jam": "10.00–21.00", "Kategori": "Jasa" }, "geometry": { "type": "Point", "coordinates": [ 110.356816596152669, -7.786177533302186 ] } },
{ "type": "Feature", "properties": { "Id": 0, "UMKM": "Pijat keseleo dan syaraf kejepit Bu uut", "Jenis": "Terapis Pijat", "Kontak": "085866303695", "Alamat": "Badran, Jt 1 / 1070, RT.53/RW.12, Bumijo, Kec. Jetis, Kota Yogyakarta, Daerah Istimewa Yogyakarta 55231", "Jam": "08.00–22.00", "Kategori": "Jasa" }, "geometry": { "type": "Point", "coordinates": [ 110.358238692674561, -7.785587490756809 ] } }
]
}
