{
"type": "FeatureCollection",
"name": "UMKMKuliner_4326",
"crs": { "type": "name", "properties": { "name": "urn:ogc:def:crs:OGC:1.3:CRS84" } },
"features": [
{ "type": "Feature", "properties": { "Id": 0, "UMKM": "Ronde RaDen", "Jenis": "Wedang Ronde", "Kontak": "085186053468", "Alamat": "Jl. Magelang No.19, Bumijo, Kec. Tegalrejo, Kota Yogyakarta, Daerah Istimewa Yogyakarta 55242", "Jam": "16.00–22.30" }, "geometry": { "type": "Point", "coordinates": [ 110.36071252462132, -7.781187931290491 ] } },
{ "type": "Feature", "properties": { "Id": 0, "UMKM": "Nasi Langgi Mbak Nuk", "Jenis": "Nasi Langgi", "Kontak": "085747593193", "Alamat": "Jl. Kyai Mojo No.28, Pingit, Kec. Jetis, Kota Yogyakarta, Daerah Istimewa Yogyakarta 55231", "Jam": "17.00–21.00" }, "geometry": { "type": "Point", "coordinates": [ 110.35886652591293, -7.782705774247703 ] } },
{ "type": "Feature", "properties": { "Id": 0, "UMKM": "Bakmi Jawa Pak Rin Pasar Pingit", "Jenis": "Bakmi Jawa", "Kontak": "081578766707", "Alamat": "Jl. Tentara Zeni Pelajar No.24, Bumijo, Kec. Jetis, Kota Yogyakarta, Daerah Istimewa Yogyakarta 55231", "Jam": "17.30–23.30" }, "geometry": { "type": "Point", "coordinates": [ 110.35861005442591, -7.783417753058878 ] } },
{ "type": "Feature", "properties": { "Id": 0, "UMKM": "Dapur Mami Mbul", "Jenis": "Warung Nasi", "Kontak": "087737840061", "Alamat": "Jl. Badran JT 1 No.529, Bumijo, Kec. Jetis, Kota Yogyakarta, Daerah Istimewa Yogyakarta 55231", "Jam": "08.00–16.00" }, "geometry": { "type": "Point", "coordinates": [ 110.356503916134358, -7.785143405668305 ] } },
{ "type": "Feature", "properties": { "Id": 0, "UMKM": "Sop Sapi Lek Min", "Jenis": "Sop Sapi", "Kontak": "081804381237", "Alamat": "Jl. Tentara Rakyat Mataram No.29B, Bumijo, Kec. Jetis, Kota Yogyakarta, Daerah Istimewa Yogyakarta 55231", "Jam": "08.00–12.00" }, "geometry": { "type": "Point", "coordinates": [ 110.357647701268192, -7.787578052694575 ] } },
{ "type": "Feature", "properties": { "Id": 0, "UMKM": "Gado-Gado & Ketoprak Nyah Seger", "Jenis": "Gado-Gado & Ketoprak", "Kontak": "08174114482", "Alamat": "Jl. Tentara Rakyat Mataram No.15, Bumijo, Kec. Jetis, Kota Yogyakarta, Daerah Istimewa Yogyakarta 55231", "Jam": "06.00–15.30" }, "geometry": { "type": "Point", "coordinates": [ 110.357434969358593, -7.787932596553188 ] } },
{ "type": "Feature", "properties": { "Id": 0, "UMKM": "Roti Dieng", "Jenis": "Toko Roti", "Kontak": "02742920830", "Alamat": "Jl. Tentara Pelajar Jl. Badran No.943, Bumijo, Kec. Jetis, Kota Yogyakarta, Daerah Istimewa Yogyakarta 55231", "Jam": "08.00–19.00" }, "geometry": { "type": "Point", "coordinates": [ 110.358488521496525, -7.787580050091079 ] } },
{ "type": "Feature", "properties": { "Id": 0, "UMKM": "Bakso Metro", "Jenis": "Bakso", "Kontak": "085292670972", "Alamat": "Jl. Suryonegaran No.16, Bumijo, Kec. Jetis, Kota Yogyakarta, Daerah Istimewa Yogyakarta 55231", "Jam": "08.00–19.30" }, "geometry": { "type": "Point", "coordinates": [ 110.360361329175362, -7.787807002207479 ] } },
{ "type": "Feature", "properties": { "Id": 0, "UMKM": "Warmindo Putra Cikal", "Jenis": "Rumah Makan", "Kontak": null, "Alamat": "Jl. Bumijo Tengah No.17, Bumijo, Kec. Jetis, Kota Yogyakarta, Daerah Istimewa Yogyakarta 55231", "Jam": "05.00–00.00" }, "geometry": { "type": "Point", "coordinates": [ 110.361185161281696, -7.787098529620118 ] } },
{ "type": "Feature", "properties": { "Id": 0, "UMKM": "Ban Pho Vietnam Streetfood", "Jenis": "Restoran Vietnam", "Kontak": null, "Alamat": "Jl. Bumijo Tengah No.14a, Bumijo, Kec. Jetis, Kota Yogyakarta, Daerah Istimewa Yogyakarta 55231", "Jam": "15.00–22.00" }, "geometry": { "type": "Point", "coordinates": [ 110.361549387355751, -7.78692025847253 ] } },
{ "type": "Feature", "properties": { "Id": 0, "UMKM": "Butter Hour", "Jenis": "Toko Roti", "Kontak": "087829709599", "Alamat": "Jl. Bumijo No.9, Bumijo, Kec. Jetis, Kota Yogyakarta, Daerah Istimewa Yogyakarta 55231", "Jam": "10.00–19.00" }, "geometry": { "type": "Point", "coordinates": [ 110.363031015233418, -7.785190804007994 ] } },
{ "type": "Feature", "properties": { "Id": 0, "UMKM": "Sari Laut Cak Aji", "Jenis": "Restoran Seafood", "Kontak": "081326596535", "Alamat": "Belakang TAM Service Center, Jl. Bumijo, Bumijo, Jetis, Yogyakarta City, Special Region of Yogyakarta 55231", "Jam": "15.00–22.00" }, "geometry": { "type": "Point", "coordinates": [ 110.362798814642389, -7.785286640392561 ] } },
{ "type": "Feature", "properties": { "Id": 0, "UMKM": "Tahu Gimbal Pak Yono", "Jenis": "Warung Tahu", "Kontak": "085801061110", "Alamat": "Jl. Tentara Pelajar No.19, Bumijo, Kec. Jetis, Kota Yogyakarta, Daerah Istimewa Yogyakarta 55231", "Jam": "07.30–16.00" }, "geometry": { "type": "Point", "coordinates": [ 110.360655657230339, -7.7846929669954 ] } },
{ "type": "Feature", "properties": { "Id": 0, "UMKM": "Nasi Rames Bu Santi", "Jenis": "Nasi Rames", "Kontak": "081804061750", "Alamat": "Bumijo, Jetis, Yogyakarta City, Special Region of Yogyakarta 55231", "Jam": "09.00–16.00" }, "geometry": { "type": "Point", "coordinates": [ 110.360124514487069, -7.784689791888739 ] } },
{ "type": "Feature", "properties": { "Id": 0, "UMKM": "Warung Makan Bu Win", "Jenis": "Warung Makan Jawa", "Kontak": "081804188997", "Alamat": "Gg. Damai Jl. Bumijo Kulon No.1081, Bumijo, Kec. Jetis, Kota Yogyakarta, Daerah Istimewa Yogyakarta 55231", "Jam": "09.00–15.00" }, "geometry": { "type": "Point", "coordinates": [ 110.359966520283891, -7.784097569597971 ] } },
{ "type": "Feature", "properties": { "Id": 0, "UMKM": "Warung Makan Sumirah", "Jenis": "Warung Makan", "Kontak": null, "Alamat": "Gg. Damai No.24-108, Bumijo, Kec. Jetis, Kota Yogyakarta, Daerah Istimewa Yogyakarta 55231", "Jam": "09.00–17.00" }, "geometry": { "type": "Point", "coordinates": [ 110.358665047904594, -7.783971034315131 ] } },
{ "type": "Feature", "properties": { "Id": 0, "UMKM": "Martabak Badran (MartaBad)", "Jenis": "Martabak", "Kontak": null, "Alamat": "Jl. Tentara Rakyat Mataram No.26, Bumijo, Kec. Jetis, Kota Yogyakarta, Daerah Istimewa Yogyakarta 55231", "Jam": "19.00–00.00" }, "geometry": { "type": "Point", "coordinates": [ 110.357648931040615, -7.785877139086264 ] } },
{ "type": "Feature", "properties": { "Id": 0, "UMKM": "Warung Soto Pak Sur", "Jenis": "Warung Soto", "Kontak": "081904177872", "Alamat": "Jl. Tentara Rakyat Mataram No.52, Bumijo, Kec. Jetis, Kota Yogyakarta, Daerah Istimewa Yogyakarta 55231", "Jam": "06.30–14.00" }, "geometry": { "type": "Point", "coordinates": [ 110.357823665708892, -7.783858437120309 ] } },
{ "type": "Feature", "properties": { "Id": 0, "UMKM": "Tamuna Bakery Bumijo (Soft Sourdough)", "Jenis": "Toko Roti", "Kontak": null, "Alamat": "Jl. Bumijo Tengah No.21, Bumijo, Kec. Jetis, Kota Yogyakarta, Daerah Istimewa Yogyakarta 55231", "Jam": "08.30–18.30" }, "geometry": { "type": "Point", "coordinates": [ 110.360714922545725, -7.786995947089249 ] } },
{ "type": "Feature", "properties": { "Id": 0, "UMKM": "Multatuli Kopi", "Jenis": "Kedai Kopi", "Kontak": null, "Alamat": "Jl. Tentara Pelajar Jl. Bumijo Tengah No.12, Bumijo, Kec. Jetis, Kota Yogyakarta, Daerah Istimewa Yogyakarta 55231", "Jam": "10.00–00.00" }, "geometry": { "type": "Point", "coordinates": [ 110.360055757226363, -7.786713667350827 ] } },
{ "type": "Feature", "properties": { "Id": 0, "UMKM": "NYOKLAT Klasik Kyai Mojo", "Jenis": "Minuman Coklat", "Kontak": "0858766396141", "Alamat": "6985+R8H Warung Makan Mbak Nur Dua Jagoan, Jl. Kyai Mojo Jl. Tentara Zeni Pelajar, Bumijo, Jetis, Yogyakarta City, Special Region of Yogyakarta 55231", "Jam": "06.00–16.00" }, "geometry": { "type": "Point", "coordinates": [ 110.358337888327469, -7.782948997050172 ] } },
{ "type": "Feature", "properties": { "Id": 0, "UMKM": "Ayam Bakar Kemangi - Bumijo", "Jenis": "Masakan Ayam", "Kontak": null, "Alamat": "Gg. Damai No.24-108, Bumijo, Kec. Jetis, Kota Yogyakarta, Daerah Istimewa Yogyakarta 55231", "Jam": null }, "geometry": { "type": "Point", "coordinates": [ 110.359580866367111, -7.783789378603298 ] } },
{ "type": "Feature", "properties": { "Id": 0, "UMKM": "Camilan Bintang Naga", "Jenis": "Toko Camilan Grosir & Eceran", "Kontak": "089603301129", "Alamat": "Jl. Tentara Rakyat Mataram No.38, Bumijo, Kec. Jetis, Kota Yogyakarta, Daerah Istimewa Yogyakarta 55231", "Jam": "07.00–20.00" }, "geometry": { "type": "Point", "coordinates": [ 110.357642561141986, -7.785276373249705 ] } },
{ "type": "Feature", "properties": { "Id": 0, "UMKM": "Kacang Mede Mete \"Bu Sum\"", "Jenis": "Camilan Kacang-kacangan", "Kontak": "085327122893", "Alamat": "DI Yogyakarta, Jetis, Bumijo Lor Jt 1/1288, RT.27/RW.07, Bumijo, Kec. Jetis, Kota Yogyakarta, Daerah Istimewa Yogyakarta 55231", "Jam": "07.00–20.00" }, "geometry": { "type": "Point", "coordinates": [ 110.362106881518301, -7.785473957483613 ] } },
{ "type": "Feature", "properties": { "Id": 0, "UMKM": "Tahu walik appo", "Jenis": "Cepat Saji Tahu", "Kontak": "082128625204", "Alamat": "Pingit Jt 1 No.214, RT.57/RW.13, Bumijo, Kec. Jetis, Kota Yogyakarta, Daerah Istimewa Yogyakarta 55231", "Jam": "08.00–21.00" }, "geometry": { "type": "Point", "coordinates": [ 110.35835853011892, -7.781283545928161 ] } },
{ "type": "Feature", "properties": { "Id": 0, "UMKM": "Lokalita Coffee", "Jenis": "Kedai Kopi", "Kontak": "0895327710405", "Alamat": "Pingit Jt 1 No.225, RT.57/RW.13, Bumijo, Kec. Jetis, Kota Yogyakarta, Daerah Istimewa Yogyakarta 55231", "Jam": "08.30–21.00" }, "geometry": { "type": "Point", "coordinates": [ 110.358389709785058, -7.781643529649354 ] } },
{ "type": "Feature", "properties": { "Id": 0, "UMKM": "Nasi Rames Bu Bandi", "Jenis": "Warung Nasi", "Kontak": null, "Alamat": "Jl. Tentara Zeni Pelajar Blok JT-1 No.308, Bumijo, Kec. Jetis, Kota Yogyakarta, Daerah Istimewa Yogyakarta 55231", "Jam": null }, "geometry": { "type": "Point", "coordinates": [ 110.35928254910624, -7.781929110187463 ] } },
{ "type": "Feature", "properties": { "Id": 0, "UMKM": "Penyetan Rempah Pawon", "Jenis": "Kedai Sarapan & Makan Siang", "Kontak": "082194444405", "Alamat": "Jl. Tentara Pelajar No.20, Bumijo, Kec. Jetis, Kota Yogyakarta, Daerah Istimewa Yogyakarta 55281", "Jam": "06.30–20.00" }, "geometry": { "type": "Point", "coordinates": [ 110.360497962744333, -7.785937553336701 ] } },
{ "type": "Feature", "properties": { "Id": 0, "UMKM": "Mie Ayam Mbah \"Menn\"", "Jenis": "Mie Ayam", "Kontak": null, "Alamat": "Jl. Tentara Zeni Pelajar No.4, Bumijo, Kec. Jetis, Kota Yogyakarta, Daerah Istimewa Yogyakarta 55231", "Jam": "12.00–19.00" }, "geometry": { "type": "Point", "coordinates": [ 110.358844791047602, -7.786864286487779 ] } },
{ "type": "Feature", "properties": { "Id": 0, "UMKM": "RM. Takana Juo", "Jenis": "Restoran Padang", "Kontak": "087738293066", "Alamat": "Jl. Tentara Zeni Pelajar, Bumijo, Kec. Jetis, Kota Yogyakarta, Daerah Istimewa Yogyakarta 55231", "Jam": "06.00–16.00" }, "geometry": { "type": "Point", "coordinates": [ 110.358354198274398, -7.783460559056167 ] } }
]
}
